{"type":"FeatureCollection","name":"cuerpos-agua-latam","features":[{"type":"Feature","properties":{"nombre":"Lake Okeechobee"},"geometry":{"type":"Polygon","coordinates":[[[-80.629,26.887],[-80.668,26.826],[-80.711,26.742],[-80.743,26.697],[-80.784,26.691],[-80.827,26.707],[-80.858,26.723],[-80.896,26.752],[-80.932,26.81],[-80.979,26.856],[-81.027,26.876],[-81.071,26.917],[-81.081,26.956],[-81.055,26.991],[-80.997,27.033],[-80.942,27.077],[-80.87,27.147],[-80.803,27.182],[-80.759,27.182],[-80.711,27.133],[-80.69,27.11],[-80.671,27.087],[-80.654,27.054],[-80.639,27.008],[-80.621,26.949],[-80.629,26.887],[-80.629,26.887],[-80.629,26.887],[-80.629,26.887]]]}},{"type":"Feature","properties":{"nombre":"Lago de Nicaragua"},"geometry":{"type":"Polygon","coordinates":[[[-84.814,11.26],[-84.792,11.206],[-84.781,11.157],[-84.769,11.118],[-84.803,11.065],[-84.842,11.049],[-84.897,11.035],[-84.94,11.052],[-85.005,11.057],[-85.11,11.081],[-85.26,11.123],[-85.411,11.174],[-85.517,11.216],[-85.584,11.25],[-85.64,11.283],[-85.684,11.317],[-85.719,11.353],[-85.754,11.406],[-85.798,11.483],[-85.834,11.563],[-85.854,11.626],[-85.864,11.664],[-85.877,11.683],[-85.89,11.691],[-85.899,11.702],[-85.903,11.721],[-85.901,11.745],[-85.901,11.795],[-85.908,11.874],[-85.914,11.953],[-85.912,12.003],[-85.894,12.035],[-85.871,12.098],[-85.835,12.109],[-85.798,12.107],[-85.751,12.094],[-85.676,12.064],[-85.588,12.016],[-85.513,11.959],[-85.441,11.902],[-85.362,11.855],[-85.259,11.783],[-85.132,11.663],[-85.009,11.527],[-84.916,11.414],[-84.857,11.329],[-84.814,11.26],[-84.814,11.26],[-84.814,11.26],[-84.814,11.26]]]}},{"type":"Feature","properties":{"nombre":"Lago Titicaca"},"geometry":{"type":"Polygon","coordinates":[[[-69.366,-16.223],[-69.4,-16.2],[-69.436,-16.187],[-69.483,-16.182],[-69.487,-16.161],[-69.449,-16.112],[-69.439,-16.059],[-69.447,-16.029],[-69.489,-16.012],[-69.558,-15.991],[-69.627,-15.967],[-69.668,-15.943],[-69.691,-15.922],[-69.717,-15.907],[-69.748,-15.887],[-69.782,-15.855],[-69.812,-15.828],[-69.834,-15.819],[-69.846,-15.827],[-69.854,-15.841],[-69.852,-15.861],[-69.842,-15.884],[-69.833,-15.905],[-69.835,-15.916],[-69.845,-15.92],[-69.859,-15.92],[-69.876,-15.914],[-69.895,-15.9],[-69.923,-15.88],[-69.961,-15.86],[-69.994,-15.842],[-70.011,-15.828],[-70.016,-15.807],[-70.021,-15.771],[-70.017,-15.733],[-70.002,-15.706],[-69.979,-15.68],[-69.956,-15.646],[-69.921,-15.634],[-69.866,-15.66],[-69.818,-15.692],[-69.798,-15.693],[-69.818,-15.638],[-69.869,-15.533],[-69.929,-15.427],[-69.938,-15.399],[-69.914,-15.374],[-69.855,-15.344],[-69.844,-15.324],[-69.833,-15.31],[-69.799,-15.299],[-69.761,-15.287],[-69.742,-15.269],[-69.687,-15.264],[-69.625,-15.344],[-69.541,-15.372],[-69.449,-15.474],[-69.405,-15.491],[-69.361,-15.511],[-69.299,-15.621],[-69.27,-15.628],[-69.224,-15.66],[-69.19,-15.679],[-69.17,-15.697],[-69.147,-15.725],[-69.103,-15.765],[-69.039,-15.796],[-69.014,-15.848],[-69.014,-15.91],[-68.995,-15.926],[-68.904,-15.943],[-68.831,-15.948],[-68.796,-15.972],[-68.809,-15.994],[-68.826,-16.017],[-68.853,-16.049],[-68.889,-16.084],[-68.871,-16.136],[-68.829,-16.19],[-68.764,-16.202],[-68.694,-16.219],[-68.635,-16.221],[-68.593,-16.239],[-68.594,-16.272],[-68.586,-16.288],[-68.588,-16.302],[-68.612,-16.312],[-68.655,-16.318],[-68.693,-16.326],[-68.705,-16.339],[-68.712,-16.359],[-68.739,-16.383],[-68.787,-16.407],[-68.86,-16.415],[-68.906,-16.424],[-68.928,-16.448],[-68.897,-16.465],[-68.868,-16.5],[-68.858,-16.524],[-68.856,-16.547],[-68.862,-16.569],[-68.871,-16.589],[-68.904,-16.589],[-68.942,-16.582],[-69.006,-16.551],[-69.049,-16.525],[-69.076,-16.521],[-69.098,-16.483],[-69.052,-16.417],[-69.039,-16.364],[-69.043,-16.318],[-69.044,-16.281],[-69.005,-16.252],[-68.946,-16.223],[-68.905,-16.241],[-68.885,-16.241],[-68.891,-16.206],[-68.947,-16.176],[-69.015,-16.111],[-69.077,-16.081],[-69.103,-16.087],[-69.107,-16.132],[-69.121,-16.178],[-69.136,-16.232],[-69.178,-16.25],[-69.222,-16.254],[-69.269,-16.251],[-69.324,-16.243],[-69.366,-16.223],[-69.366,-16.223],[-69.366,-16.223],[-69.366,-16.223]]]}},{"type":"Feature","properties":{"nombre":"Lago Madre"},"geometry":{"type":"Polygon","coordinates":[[[-97.427,25.354],[-97.456,25.273],[-97.537,25.082],[-97.612,24.782],[-97.687,24.476],[-97.72,24.255],[-97.758,23.915],[-97.765,23.917],[-97.775,24.082],[-97.759,24.159],[-97.75,24.264],[-97.741,24.391],[-97.768,24.436],[-97.805,24.444],[-97.828,24.477],[-97.833,24.517],[-97.824,24.544],[-97.8,24.546],[-97.742,24.502],[-97.725,24.501],[-97.689,24.663],[-97.7,24.709],[-97.703,24.845],[-97.643,24.908],[-97.655,24.937],[-97.707,24.966],[-97.729,24.994],[-97.699,25.159],[-97.7,25.201],[-97.706,25.225],[-97.754,25.257],[-97.721,25.288],[-97.68,25.346],[-97.654,25.365],[-97.643,25.364],[-97.611,25.326],[-97.576,25.312],[-97.543,25.312],[-97.531,25.327],[-97.518,25.435],[-97.508,25.447],[-97.473,25.44],[-97.438,25.406],[-97.427,25.354],[-97.427,25.354],[-97.427,25.354]]]}},{"type":"Feature","properties":{"nombre":"Lago Llanquihue"},"geometry":{"type":"Polygon","coordinates":[[[-72.967,-41.285],[-72.989,-41.228],[-72.994,-41.15],[-72.974,-41.087],[-72.912,-41.021],[-72.849,-40.974],[-72.776,-40.989],[-72.703,-41.026],[-72.639,-41.1],[-72.599,-41.184],[-72.629,-41.214],[-72.727,-41.2],[-72.876,-41.294],[-72.967,-41.285],[-72.967,-41.285],[-72.967,-41.285],[-72.967,-41.285]]]}},{"type":"Feature","properties":{"nombre":null},"geometry":{"type":"Polygon","coordinates":[[[-90.425,30.274],[-90.467,30.198],[-90.537,30.179],[-90.574,30.197],[-90.58,30.235],[-90.557,30.284],[-90.493,30.348],[-90.433,30.326],[-90.425,30.274],[-90.425,30.274],[-90.425,30.274]]]}},{"type":"Feature","properties":{"nombre":"Laguna Mar Chiquita"},"geometry":{"type":"Polygon","coordinates":[[[-62.23,-30.776],[-62.408,-30.841],[-62.571,-30.863],[-62.727,-30.917],[-62.81,-30.847],[-62.86,-30.801],[-62.931,-30.751],[-62.979,-30.692],[-62.931,-30.649],[-62.827,-30.624],[-62.722,-30.584],[-62.688,-30.548],[-62.644,-30.521],[-62.426,-30.559],[-62.413,-30.543],[-62.374,-30.548],[-62.288,-30.589],[-62.233,-30.671],[-62.23,-30.776],[-62.23,-30.776],[-62.23,-30.776]]]}},{"type":"Feature","properties":{"nombre":"Lago Enriquillo"},"geometry":{"type":"Polygon","coordinates":[[[-71.509,18.47],[-71.537,18.434],[-71.607,18.421],[-71.794,18.494],[-71.777,18.531],[-71.683,18.551],[-71.584,18.514],[-71.509,18.47],[-71.509,18.47],[-71.509,18.47]]]}},{"type":"Feature","properties":{"nombre":"Lago Argentino"},"geometry":{"type":"Polygon","coordinates":[[[-71.982,-50.224],[-71.999,-50.244],[-72.113,-50.264],[-72.274,-50.302],[-72.441,-50.307],[-72.595,-50.293],[-72.672,-50.278],[-72.794,-50.291],[-72.973,-50.357],[-73.004,-50.419],[-72.962,-50.471],[-72.858,-50.47],[-72.795,-50.46],[-72.782,-50.483],[-72.85,-50.538],[-72.921,-50.612],[-72.955,-50.62],[-73.01,-50.515],[-73.109,-50.365],[-73.168,-50.332],[-73.223,-50.335],[-73.274,-50.346],[-73.285,-50.331],[-73.214,-50.27],[-73.028,-50.289],[-72.972,-50.261],[-72.983,-50.226],[-73.044,-50.199],[-73.163,-50.148],[-73.232,-50.165],[-73.291,-50.211],[-73.3,-50.185],[-73.278,-50.121],[-73.286,-50.07],[-73.251,-50.033],[-73.205,-50.001],[-73.188,-49.982],[-73.137,-50.031],[-73.062,-50.133],[-72.947,-50.18],[-72.8,-50.196],[-72.731,-50.186],[-72.44,-50.173],[-72.116,-50.132],[-72.039,-50.162],[-71.982,-50.224],[-71.982,-50.224],[-71.982,-50.224]]]}},{"type":"Feature","properties":{"nombre":"Lago de Izabal"},"geometry":{"type":"Polygon","coordinates":[[[-88.878,15.712],[-88.925,15.678],[-88.97,15.636],[-88.997,15.573],[-89.022,15.489],[-89.079,15.444],[-89.182,15.417],[-89.238,15.41],[-89.278,15.395],[-89.301,15.382],[-89.326,15.412],[-89.366,15.46],[-89.388,15.488],[-89.372,15.505],[-89.317,15.522],[-89.247,15.549],[-89.183,15.575],[-89.105,15.602],[-88.971,15.688],[-88.862,15.764],[-88.843,15.765],[-88.852,15.741],[-88.878,15.712],[-88.878,15.712],[-88.878,15.712],[-88.878,15.712]]]}},{"type":"Feature","properties":{"nombre":"Van Blommestein Meer"},"geometry":{"type":"Polygon","coordinates":[[[-54.894,4.783],[-54.925,4.747],[-54.941,4.725],[-54.938,4.699],[-54.924,4.673],[-54.892,4.665],[-54.865,4.655],[-54.864,4.626],[-54.874,4.601],[-54.9,4.594],[-54.932,4.581],[-54.952,4.596],[-54.983,4.609],[-55.013,4.599],[-55.048,4.57],[-55.064,4.533],[-55.087,4.489],[-55.123,4.462],[-55.149,4.471],[-55.19,4.484],[-55.22,4.492],[-55.23,4.514],[-55.26,4.525],[-55.299,4.524],[-55.335,4.528],[-55.329,4.574],[-55.303,4.609],[-55.279,4.621],[-55.273,4.663],[-55.284,4.699],[-55.235,4.779],[-55.173,4.879],[-55.15,4.964],[-55.127,4.999],[-55.093,4.999],[-55.02,4.971],[-54.968,4.918],[-54.938,4.904],[-54.885,4.908],[-54.84,4.912],[-54.807,4.908],[-54.796,4.881],[-54.814,4.836],[-54.838,4.789],[-54.862,4.787],[-54.894,4.783],[-54.894,4.783],[-54.894,4.783],[-54.894,4.783]]]}},{"type":"Feature","properties":{"nombre":"Lago Ranco"},"geometry":{"type":"Polygon","coordinates":[[[-72.265,-40.26],[-72.263,-40.292],[-72.273,-40.302],[-72.331,-40.299],[-72.457,-40.293],[-72.547,-40.272],[-72.558,-40.235],[-72.552,-40.201],[-72.529,-40.172],[-72.425,-40.135],[-72.33,-40.128],[-72.299,-40.15],[-72.273,-40.166],[-72.267,-40.192],[-72.27,-40.221],[-72.265,-40.26],[-72.265,-40.26],[-72.265,-40.26]]]}},{"type":"Feature","properties":{"nombre":"Lago Viedma"},"geometry":{"type":"Polygon","coordinates":[[[-72.306,-49.761],[-72.49,-49.691],[-72.621,-49.641],[-72.71,-49.639],[-72.753,-49.657],[-72.825,-49.659],[-72.943,-49.668],[-73.029,-49.673],[-73.03,-49.662],[-73.002,-49.639],[-72.973,-49.616],[-72.969,-49.588],[-72.991,-49.552],[-73.018,-49.508],[-72.985,-49.481],[-72.93,-49.44],[-72.878,-49.44],[-72.814,-49.478],[-72.52,-49.552],[-72.261,-49.611],[-72.211,-49.626],[-72.132,-49.668],[-72.101,-49.709],[-72.101,-49.736],[-72.114,-49.759],[-72.136,-49.775],[-72.184,-49.784],[-72.306,-49.761],[-72.306,-49.761],[-72.306,-49.761],[-72.306,-49.761]]]}},{"type":"Feature","properties":{"nombre":"Amistad Reservoir"},"geometry":{"type":"Polygon","coordinates":[[[-100.918,29.502],[-100.92,29.495],[-100.936,29.486],[-100.978,29.48],[-101.039,29.46],[-101.1,29.458],[-101.151,29.467],[-101.19,29.492],[-101.233,29.503],[-101.272,29.498],[-101.287,29.506],[-101.275,29.526],[-101.261,29.562],[-101.269,29.578],[-101.28,29.585],[-101.302,29.584],[-101.312,29.603],[-101.31,29.622],[-101.305,29.634],[-101.275,29.648],[-101.214,29.603],[-101.181,29.579],[-101.142,29.558],[-101.108,29.528],[-101.072,29.51],[-101.035,29.526],[-101.004,29.548],[-100.993,29.535],[-100.977,29.557],[-100.951,29.61],[-100.944,29.606],[-100.956,29.565],[-100.951,29.529],[-100.933,29.507],[-100.918,29.502],[-100.918,29.502],[-100.918,29.502],[-100.918,29.502]]]}},{"type":"Feature","properties":{"nombre":"Lago de Chapala"},"geometry":{"type":"Polygon","coordinates":[[[-102.711,20.194],[-102.7,20.182],[-102.713,20.162],[-102.744,20.139],[-102.786,20.124],[-102.852,20.139],[-102.934,20.168],[-103.008,20.183],[-103.089,20.181],[-103.17,20.179],[-103.255,20.2],[-103.34,20.231],[-103.372,20.26],[-103.272,20.281],[-103.105,20.308],[-103.002,20.329],[-102.894,20.319],[-102.77,20.198],[-102.744,20.198],[-102.711,20.194],[-102.711,20.194],[-102.711,20.194],[-102.711,20.194]]]}},{"type":"Feature","properties":{"nombre":"Lago de Managua"},"geometry":{"type":"Polygon","coordinates":[[[-86.104,12.312],[-86.102,12.271],[-86.105,12.208],[-86.175,12.185],[-86.261,12.172],[-86.315,12.177],[-86.307,12.206],[-86.297,12.242],[-86.304,12.265],[-86.323,12.28],[-86.387,12.274],[-86.47,12.274],[-86.529,12.303],[-86.572,12.343],[-86.589,12.38],[-86.589,12.405],[-86.546,12.41],[-86.468,12.428],[-86.4,12.464],[-86.339,12.48],[-86.294,12.474],[-86.236,12.383],[-86.161,12.315],[-86.119,12.329],[-86.104,12.312],[-86.104,12.312],[-86.104,12.312],[-86.104,12.312]]]}},{"type":"Feature","properties":{"nombre":"Itaipú Reservoir"},"geometry":{"type":"Polygon","coordinates":[[[-54.183,-24.708],[-54.227,-24.726],[-54.292,-24.751],[-54.312,-24.783],[-54.308,-24.819],[-54.257,-24.878],[-54.221,-24.92],[-54.251,-24.916],[-54.314,-24.892],[-54.357,-24.892],[-54.375,-24.92],[-54.393,-24.946],[-54.387,-24.982],[-54.337,-25.033],[-54.318,-25.079],[-54.332,-25.115],[-54.348,-25.139],[-54.377,-25.151],[-54.377,-25.18],[-54.288,-25.216],[-54.201,-25.24],[-54.268,-25.261],[-54.34,-25.291],[-54.383,-25.303],[-54.433,-25.309],[-54.432,-25.335],[-54.402,-25.371],[-54.424,-25.389],[-54.491,-25.387],[-54.527,-25.396],[-54.554,-25.419],[-54.582,-25.44],[-54.611,-25.433],[-54.634,-25.417],[-54.634,-25.302],[-54.608,-25.267],[-54.547,-25.235],[-54.519,-25.19],[-54.527,-25.155],[-54.559,-25.138],[-54.58,-25.128],[-54.576,-25.112],[-54.624,-25.101],[-54.721,-25.088],[-54.754,-25.063],[-54.712,-25.043],[-54.61,-25.045],[-54.528,-25.053],[-54.51,-25.016],[-54.506,-24.965],[-54.526,-24.935],[-54.67,-24.905],[-54.795,-24.88],[-54.77,-24.868],[-54.7,-24.873],[-54.612,-24.884],[-54.531,-24.877],[-54.474,-24.848],[-54.466,-24.804],[-54.524,-24.75],[-54.49,-24.712],[-54.4,-24.69],[-54.386,-24.659],[-54.387,-24.62],[-54.419,-24.579],[-54.42,-24.542],[-54.388,-24.509],[-54.4,-24.454],[-54.382,-24.416],[-54.332,-24.404],[-54.312,-24.368],[-54.313,-24.322],[-54.348,-24.264],[-54.368,-24.211],[-54.357,-24.165],[-54.35,-24.122],[-54.323,-24.092],[-54.267,-24.066],[-54.283,-24.144],[-54.271,-24.225],[-54.252,-24.286],[-54.258,-24.468],[-54.259,-24.642],[-54.216,-24.686],[-54.183,-24.708],[-54.183,-24.708],[-54.183,-24.708],[-54.183,-24.708]]]}},{"type":"Feature","properties":{"nombre":"Lago Gatun"},"geometry":{"type":"Polygon","coordinates":[[[-79.671,9.144],[-79.688,9.124],[-79.691,9.104],[-79.8,9.073],[-79.83,9.046],[-79.847,9.045],[-79.855,9.055],[-79.834,9.08],[-79.811,9.105],[-79.836,9.118],[-79.875,9.139],[-79.9,9.154],[-79.912,9.121],[-79.926,9.078],[-79.947,9.068],[-79.953,9.043],[-79.96,9.023],[-79.973,9.024],[-79.993,9.039],[-80.012,9.06],[-80.021,9.056],[-80.019,9.037],[-80.03,9.026],[-80.058,9.021],[-80.076,9.016],[-80.068,9.041],[-80.013,9.097],[-79.953,9.192],[-79.923,9.267],[-79.857,9.294],[-79.822,9.32],[-79.809,9.316],[-79.805,9.285],[-79.799,9.254],[-79.822,9.238],[-79.844,9.222],[-79.838,9.207],[-79.816,9.185],[-79.808,9.172],[-79.776,9.148],[-79.739,9.13],[-79.717,9.127],[-79.686,9.134],[-79.671,9.144],[-79.671,9.144],[-79.671,9.144],[-79.671,9.144]]]}},{"type":"Feature","properties":{"nombre":"Lagoa Mirim"},"geometry":{"type":"Polygon","coordinates":[[[-52.598,-32.585],[-52.617,-32.638],[-52.659,-32.698],[-52.694,-32.757],[-52.731,-32.812],[-52.773,-32.876],[-52.808,-32.907],[-52.847,-32.917],[-52.895,-32.91],[-52.939,-32.861],[-52.976,-32.822],[-53.015,-32.799],[-53.068,-32.808],[-53.131,-32.846],[-53.173,-32.956],[-53.228,-33.055],[-53.292,-33.081],[-53.326,-33.085],[-53.352,-33.095],[-53.377,-33.12],[-53.409,-33.159],[-53.437,-33.235],[-53.453,-33.351],[-53.437,-33.473],[-53.454,-33.532],[-53.491,-33.547],[-53.508,-33.557],[-53.527,-33.553],[-53.544,-33.539],[-53.557,-33.515],[-53.567,-33.483],[-53.573,-33.433],[-53.577,-33.368],[-53.586,-33.299],[-53.604,-33.242],[-53.62,-33.191],[-53.624,-33.136],[-53.6,-33.079],[-53.546,-33.024],[-53.473,-32.959],[-53.406,-32.954],[-53.354,-32.926],[-53.323,-32.883],[-53.313,-32.834],[-53.313,-32.793],[-53.302,-32.761],[-53.265,-32.733],[-53.217,-32.707],[-53.178,-32.679],[-53.139,-32.649],[-53.092,-32.62],[-53.03,-32.598],[-52.991,-32.534],[-52.959,-32.468],[-52.877,-32.432],[-52.81,-32.391],[-52.804,-32.348],[-52.792,-32.311],[-52.78,-32.263],[-52.745,-32.217],[-52.72,-32.199],[-52.701,-32.204],[-52.69,-32.237],[-52.69,-32.348],[-52.653,-32.394],[-52.625,-32.454],[-52.593,-32.499],[-52.591,-32.54],[-52.598,-32.585],[-52.598,-32.585],[-52.598,-32.585],[-52.598,-32.585]]]}},{"type":"Feature","properties":{"nombre":"Lago Buenos Aires"},"geometry":{"type":"Polygon","coordinates":[[[-71.166,-46.527],[-71.207,-46.563],[-71.376,-46.575],[-71.628,-46.538],[-71.782,-46.499],[-71.998,-46.521],[-72.258,-46.586],[-72.554,-46.744],[-72.774,-46.873],[-72.815,-46.909],[-72.826,-46.951],[-72.86,-46.997],[-72.904,-47.011],[-72.87,-46.911],[-72.789,-46.785],[-72.707,-46.727],[-72.661,-46.664],[-72.695,-46.592],[-72.724,-46.512],[-72.692,-46.499],[-72.645,-46.564],[-72.585,-46.605],[-72.478,-46.596],[-72.237,-46.513],[-71.988,-46.437],[-71.872,-46.382],[-71.88,-46.341],[-71.872,-46.324],[-71.847,-46.316],[-71.755,-46.33],[-71.626,-46.297],[-71.605,-46.313],[-71.578,-46.361],[-71.442,-46.408],[-71.313,-46.436],[-71.221,-46.482],[-71.166,-46.527],[-71.166,-46.527],[-71.166,-46.527],[-71.166,-46.527]]]}},{"type":"Feature","properties":{"nombre":null},"geometry":{"type":"Polygon","coordinates":[[[-105.042,21.801],[-105.042,21.796],[-105.063,21.809],[-105.042,21.801],[-105.042,21.801],[-105.042,21.801]]]}},{"type":"Feature","properties":{"nombre":"Represa de Sobradinho"},"geometry":{"type":"Polygon","coordinates":[[[-40.92,-9.257],[-40.92,-9.257],[-40.92,-9.257],[-40.818,-9.406],[-40.818,-9.438],[-40.84,-9.455],[-41.097,-9.5],[-41.138,-9.577],[-41.147,-9.664],[-41.188,-9.702],[-41.266,-9.71],[-41.35,-9.736],[-41.464,-9.794],[-41.541,-9.801],[-41.561,-9.789],[-41.649,-9.819],[-41.818,-9.82],[-41.866,-9.77],[-41.935,-9.787],[-41.999,-9.833],[-42.075,-9.888],[-42.171,-10.024],[-42.167,-10.081],[-42.071,-10.115],[-41.986,-10.152],[-41.916,-10.237],[-41.874,-10.3],[-41.917,-10.29],[-41.938,-10.253],[-41.995,-10.196],[-42.119,-10.151],[-42.201,-10.145],[-42.243,-10.114],[-42.278,-10.107],[-42.335,-10.098],[-42.363,-10.192],[-42.252,-10.462],[-42.157,-10.668],[-42.196,-10.746],[-42.24,-10.896],[-42.269,-10.931],[-42.3,-10.949],[-42.336,-11.001],[-42.351,-10.999],[-42.295,-10.84],[-42.237,-10.66],[-42.259,-10.548],[-42.317,-10.495],[-42.37,-10.427],[-42.415,-10.415],[-42.482,-10.467],[-42.538,-10.55],[-42.611,-10.675],[-42.725,-10.842],[-42.734,-10.875],[-42.74,-11.044],[-42.764,-11.142],[-42.812,-11.187],[-42.825,-11.251],[-42.863,-11.249],[-42.902,-11.257],[-42.934,-11.244],[-42.978,-11.174],[-43.017,-11.138],[-43.072,-11.109],[-43.15,-11.143],[-43.16,-11.115],[-43.107,-10.996],[-43.087,-10.94],[-43.051,-10.916],[-42.968,-10.832],[-42.893,-10.774],[-42.924,-10.713],[-42.947,-10.69],[-42.994,-10.664],[-42.991,-10.623],[-42.955,-10.594],[-42.904,-10.651],[-42.839,-10.741],[-42.78,-10.744],[-42.745,-10.706],[-42.748,-10.615],[-42.79,-10.561],[-42.851,-10.498],[-42.848,-10.462],[-42.816,-10.462],[-42.733,-10.517],[-42.668,-10.538],[-42.626,-10.509],[-42.614,-10.48],[-42.679,-10.398],[-42.685,-10.354],[-42.673,-10.288],[-42.642,-10.301],[-42.558,-10.352],[-42.497,-10.331],[-42.494,-10.267],[-42.53,-10.212],[-42.596,-10.093],[-42.791,-9.998],[-42.816,-9.962],[-42.791,-9.945],[-42.753,-9.956],[-42.734,-9.916],[-42.71,-9.954],[-42.691,-9.967],[-42.675,-9.955],[-42.639,-9.973],[-42.606,-9.999],[-42.593,-10.031],[-42.567,-10.071],[-42.547,-10.078],[-42.508,-10.069],[-42.482,-10.044],[-42.519,-9.983],[-42.51,-9.948],[-42.472,-9.959],[-42.419,-9.995],[-42.361,-9.985],[-42.341,-9.949],[-42.333,-9.906],[-42.303,-9.872],[-42.287,-9.834],[-42.305,-9.772],[-42.354,-9.708],[-42.318,-9.696],[-42.221,-9.696],[-42.195,-9.613],[-42.141,-9.607],[-42.09,-9.592],[-42.077,-9.546],[-42.048,-9.511],[-41.998,-9.517],[-41.979,-9.573],[-41.924,-9.618],[-41.74,-9.565],[-41.592,-9.591],[-41.503,-9.586],[-41.457,-9.596],[-41.446,-9.591],[-41.365,-9.622],[-41.328,-9.608],[-41.305,-9.591],[-41.264,-9.594],[-41.224,-9.511],[-41.224,-9.432],[-41.264,-9.362],[-41.245,-9.346],[-41.186,-9.366],[-41.175,-9.352],[-41.191,-9.309],[-41.184,-9.283],[-41.132,-9.291],[-41.064,-9.282],[-41.042,-9.242],[-41.029,-9.194],[-41.047,-9.149],[-41.041,-9.125],[-41.038,-9.058],[-41.027,-9.004],[-40.976,-9.018],[-40.959,-9.038],[-40.935,-9.057],[-40.953,-9.174],[-40.92,-9.257]],[[-42.803,-10.961],[-42.803,-10.961],[-42.803,-10.961],[-42.849,-10.935],[-42.839,-10.905],[-42.804,-10.87],[-42.772,-10.843],[-42.783,-10.831],[-42.847,-10.846],[-42.891,-10.902],[-42.991,-10.943],[-42.996,-10.961],[-42.899,-10.945],[-42.879,-10.975],[-42.918,-11.038],[-42.931,-11.079],[-42.91,-11.111],[-42.879,-11.148],[-42.849,-11.143],[-42.807,-11.083],[-42.803,-10.961]]]}},{"type":"Feature","properties":{"nombre":"Falcon Lake"},"geometry":{"type":"Polygon","coordinates":[[[-99.184,26.76],[-99.184,26.76],[-99.184,26.76],[-99.184,26.76],[-99.15,26.751],[-99.119,26.749],[-99.113,26.727],[-99.149,26.652],[-99.15,26.592],[-99.172,26.564],[-99.2,26.562],[-99.243,26.584],[-99.255,26.67],[-99.283,26.76],[-99.331,26.803],[-99.394,26.795],[-99.386,26.807],[-99.364,26.821],[-99.368,26.886],[-99.401,26.954],[-99.464,27.025],[-99.457,27.057],[-99.415,27.044],[-99.369,27.002],[-99.277,26.921],[-99.218,26.91],[-99.218,26.805],[-99.184,26.76]]]}},{"type":"Feature","properties":{"nombre":"Lake George"},"geometry":{"type":"Polygon","coordinates":[[[-81.684,29.368],[-81.684,29.368],[-81.684,29.368],[-81.684,29.368],[-81.683,29.505],[-81.64,29.414],[-81.54,29.287],[-81.529,29.224],[-81.595,29.198],[-81.64,29.258],[-81.663,29.314],[-81.684,29.368]]]}},{"type":"Feature","properties":{"nombre":"Represa de Tucuruí"},"geometry":{"type":"Polygon","coordinates":[[[-49.709,-4.422],[-49.709,-4.422],[-49.709,-4.422],[-49.709,-4.422],[-49.81,-4.409],[-49.826,-4.391],[-49.865,-4.321],[-49.859,-4.298],[-49.815,-4.26],[-49.816,-4.194],[-49.809,-4.175],[-49.753,-4.115],[-49.749,-4.058],[-49.719,-4.028],[-49.716,-3.958],[-49.715,-3.855],[-49.687,-3.835],[-49.626,-3.848],[-49.592,-3.958],[-49.543,-4.125],[-49.524,-4.226],[-49.524,-4.257],[-49.499,-4.283],[-49.448,-4.36],[-49.429,-4.454],[-49.435,-4.49],[-49.35,-4.602],[-49.298,-4.679],[-49.316,-4.725],[-49.283,-4.8],[-49.29,-4.836],[-49.347,-4.881],[-49.338,-4.945],[-49.281,-5.165],[-49.176,-5.275],[-48.962,-5.276],[-48.937,-5.303],[-48.971,-5.333],[-49.17,-5.388],[-49.281,-5.301],[-49.351,-5.183],[-49.415,-5.044],[-49.532,-4.846],[-49.549,-4.74],[-49.592,-4.652],[-49.677,-4.617],[-49.713,-4.593],[-49.675,-4.546],[-49.653,-4.484],[-49.675,-4.437],[-49.709,-4.422]]]}},{"type":"Feature","properties":{"nombre":"Represa Três Marias"},"geometry":{"type":"Polygon","coordinates":[[[-44.972,-18.782],[-44.972,-18.782],[-44.972,-18.782],[-44.972,-18.782],[-44.942,-18.794],[-44.932,-18.824],[-44.903,-18.841],[-44.92,-18.857],[-44.967,-18.85],[-45.044,-18.828],[-45.118,-18.83],[-45.129,-18.849],[-45.121,-18.887],[-45.077,-19.005],[-45.089,-19.051],[-45.112,-19.029],[-45.156,-18.948],[-45.199,-18.957],[-45.217,-18.962],[-45.31,-18.974],[-45.397,-19.007],[-45.396,-18.939],[-45.386,-18.923],[-45.251,-18.909],[-45.209,-18.882],[-45.195,-18.831],[-45.214,-18.753],[-45.236,-18.758],[-45.247,-18.838],[-45.281,-18.853],[-45.34,-18.829],[-45.34,-18.801],[-45.29,-18.764],[-45.258,-18.678],[-45.255,-18.623],[-45.283,-18.625],[-45.359,-18.66],[-45.372,-18.636],[-45.349,-18.621],[-45.331,-18.603],[-45.298,-18.541],[-45.318,-18.501],[-45.367,-18.488],[-45.4,-18.524],[-45.429,-18.556],[-45.476,-18.564],[-45.516,-18.586],[-45.507,-18.545],[-45.479,-18.474],[-45.434,-18.433],[-45.355,-18.395],[-45.353,-18.359],[-45.328,-18.303],[-45.329,-18.273],[-45.379,-18.268],[-45.36,-18.239],[-45.287,-18.201],[-45.262,-18.204],[-45.23,-18.231],[-45.253,-18.296],[-45.285,-18.414],[-45.259,-18.474],[-45.212,-18.489],[-45.192,-18.514],[-45.185,-18.569],[-45.181,-18.607],[-45.148,-18.598],[-45.133,-18.608],[-45.136,-18.64],[-45.156,-18.686],[-45.152,-18.735],[-45.097,-18.775],[-45.036,-18.759],[-45.017,-18.723],[-45,-18.739],[-44.989,-18.769],[-44.972,-18.782]]]}},{"type":"Feature","properties":{"nombre":null},"geometry":{"type":"Polygon","coordinates":[[[-51.416,-20.426],[-51.416,-20.426],[-51.416,-20.426],[-51.416,-20.426],[-51.423,-20.397],[-51.413,-20.373],[-51.396,-20.355],[-51.438,-20.284],[-51.427,-20.257],[-51.381,-20.277],[-51.314,-20.281],[-51.272,-20.255],[-51.181,-20.257],[-51.156,-20.24],[-51.172,-20.185],[-51.15,-20.147],[-51.104,-20.179],[-51.078,-20.175],[-51.05,-20.1],[-51.049,-20.013],[-51.051,-19.781],[-51.03,-19.718],[-50.997,-19.668],[-50.97,-19.727],[-50.955,-19.912],[-50.949,-19.981],[-50.807,-19.932],[-50.668,-19.841],[-50.582,-19.82],[-50.669,-19.947],[-50.792,-19.995],[-50.844,-20.032],[-50.936,-20.09],[-50.985,-20.17],[-50.978,-20.232],[-50.934,-20.265],[-50.913,-20.319],[-50.983,-20.307],[-51.036,-20.329],[-51.09,-20.338],[-51.112,-20.337],[-51.148,-20.351],[-51.207,-20.368],[-51.245,-20.392],[-51.177,-20.458],[-51.065,-20.513],[-51.066,-20.529],[-51.197,-20.499],[-51.305,-20.441],[-51.363,-20.452],[-51.397,-20.441],[-51.416,-20.426]]]}},{"type":"Feature","properties":{"nombre":null},"geometry":{"type":"Polygon","coordinates":[[[-72.609,-40.658],[-72.609,-40.658],[-72.609,-40.658],[-72.609,-40.658],[-72.541,-40.617],[-72.391,-40.622],[-72.365,-40.639],[-72.37,-40.663],[-72.464,-40.704],[-72.57,-40.69],[-72.609,-40.658]]]}},{"type":"Feature","properties":{"nombre":"Lago Colhué Huapí"},"geometry":{"type":"Polygon","coordinates":[[[-68.676,-45.422],[-68.676,-45.422],[-68.676,-45.422],[-68.676,-45.422],[-68.664,-45.461],[-68.641,-45.512],[-68.601,-45.55],[-68.574,-45.568],[-68.566,-45.607],[-68.599,-45.645],[-68.708,-45.657],[-68.848,-45.644],[-68.923,-45.529],[-68.966,-45.447],[-68.976,-45.324],[-68.97,-45.282],[-68.934,-45.264],[-68.875,-45.294],[-68.859,-45.388],[-68.836,-45.413],[-68.802,-45.413],[-68.766,-45.365],[-68.702,-45.369],[-68.676,-45.422]]]}}]}