{"type":"FeatureCollection","name":"rios-latam","features":[{"type":"Feature","properties":{"nombre":"Alabama"},"geometry":{"type":"MultiLineString","coordinates":[[[-86.522,33.032],[-86.521,33.014],[-86.461,32.836],[-86.445,32.811]],[[-86.2,33.588],[-86.212,33.56],[-86.33,33.444]]]}},{"type":"Feature","properties":{"nombre":"Chattahoochee"},"geometry":{"type":"MultiLineString","coordinates":[[[-84.966,30.923],[-84.887,30.759],[-84.884,30.721]],[[-85.067,31.635],[-85.125,31.777],[-85.124,31.881],[-85.064,32.051]],[[-83.815,34.364],[-84.076,34.167]]]}},{"type":"Feature","properties":{"nombre":"Grande"},"geometry":{"type":"MultiLineString","coordinates":[[[-44.387,-21.465],[-44.616,-21.318]],[[-45.205,-21.093],[-45.252,-21.086],[-45.276,-21.067],[-45.336,-21.035],[-45.443,-21.011],[-45.577,-20.918],[-45.737,-20.754],[-45.847,-20.686],[-45.906,-20.714],[-45.951,-20.714],[-45.981,-20.686],[-46.078,-20.671],[-46.326,-20.668]],[[-47.073,-20.284],[-46.741,-20.48],[-46.619,-20.564],[-46.587,-20.623]],[[-50.994,-20.102],[-50.582,-19.82]],[[-49.385,-19.98],[-50.365,-19.858]]]}},{"type":"Feature","properties":{"nombre":"Panama Canal"},"geometry":{"type":"MultiLineString","coordinates":[[[-79.691,9.104],[-79.756,9.112],[-79.814,9.153],[-79.923,9.267]]]}},{"type":"Feature","properties":{"nombre":"Paranaíba"},"geometry":{"type":"MultiLineString","coordinates":[[[-50.49,-19.02],[-50.499,-18.953],[-50.458,-18.877],[-50.368,-18.769],[-50.247,-18.69],[-50.094,-18.641],[-49.96,-18.616],[-49.789,-18.615]],[[-48.227,-18.34],[-48.952,-18.326],[-49.108,-18.388]],[[-47.447,-18.171],[-47.786,-18.379],[-47.929,-18.445],[-48.017,-18.434]]]}},{"type":"Feature","properties":{"nombre":"Paraná"},"geometry":{"type":"MultiLineString","coordinates":[[[-54.611,-25.433],[-54.473,-25.22],[-54.436,-25.121],[-54.454,-25.065],[-54.413,-24.867],[-54.313,-24.528],[-54.281,-24.306],[-54.317,-24.201],[-54.318,-24.128],[-54.267,-24.066]],[[-51.936,-21.423],[-51.955,-21.469],[-51.99,-21.494],[-52.048,-21.511],[-52.073,-21.554],[-52.065,-21.623],[-52.123,-21.718],[-52.246,-21.84],[-52.339,-21.957],[-52.403,-22.069],[-52.566,-22.207],[-52.961,-22.455]],[[-50.997,-19.668],[-50.994,-20.102],[-51.064,-20.223],[-51.165,-20.308],[-51.397,-20.442]]]}},{"type":"Feature","properties":{"nombre":"Rio Grande"},"geometry":{"type":"MultiLineString","coordinates":[[[-99.457,27.057],[-99.444,27.037],[-99.302,26.885],[-99.23,26.762],[-99.172,26.564]],[[-101.039,29.46],[-101.304,29.634]],[[-107.293,32.91],[-107.281,33.114]],[[-107.181,33.173],[-107.17,33.356]]]}},{"type":"Feature","properties":{"nombre":"Río Grande de Santiago"},"geometry":{"type":"MultiLineString","coordinates":[[[-102.78,20.31],[-102.77,20.198]],[[-103.709,20.938],[-103.594,20.971]],[[-105.104,21.822],[-105.06,21.807],[-105.034,21.779]]]}},{"type":"Feature","properties":{"nombre":"San Juan"},"geometry":{"type":"MultiLineString","coordinates":[[[-84.77,11.118],[-84.978,11.207],[-85.253,11.453],[-85.871,12.098]]]}},{"type":"Feature","properties":{"nombre":"São  Francisco"},"geometry":{"type":"MultiLineString","coordinates":[[[-45.089,-19.051],[-45.176,-18.801],[-45.202,-18.591],[-45.249,-18.501],[-45.324,-18.459],[-45.336,-18.38],[-45.262,-18.203]],[[-43.15,-11.143],[-43.057,-10.988],[-42.945,-10.888],[-42.781,-10.791],[-42.633,-10.638],[-42.5,-10.427],[-42.439,-10.273],[-42.45,-10.175],[-42.404,-10.09],[-42.301,-10.019],[-42.209,-9.911],[-42.128,-9.768],[-41.91,-9.696],[-41.554,-9.694],[-41.335,-9.676],[-41.253,-9.643],[-41.175,-9.568],[-41.102,-9.453],[-41.003,-9.406],[-40.818,-9.438]]]}},{"type":"Feature","properties":{"nombre":"Tocantins"},"geometry":{"type":"MultiLineString","coordinates":[[[-49.687,-3.835],[-49.639,-4.211],[-49.546,-4.546],[-49.392,-4.966],[-49.28,-5.218],[-49.21,-5.303],[-49.115,-5.335],[-48.937,-5.303]]]}},{"type":"Feature","properties":{"nombre":"Alabama"},"geometry":{"type":"MultiLineString","coordinates":[[[-86.446,32.812],[-86.268,32.622],[-86.243,32.527],[-86.31,32.462],[-86.328,32.42],[-86.339,32.409],[-86.374,32.418],[-86.423,32.408],[-86.482,32.368],[-86.543,32.363],[-86.605,32.394],[-86.652,32.398],[-86.684,32.373],[-86.72,32.369],[-86.759,32.384],[-86.786,32.374],[-86.795,32.354],[-86.81,32.353],[-86.824,32.362],[-86.84,32.41],[-86.855,32.42],[-86.871,32.42],[-86.911,32.381],[-86.95,32.373],[-86.989,32.398],[-87.025,32.404],[-87.057,32.391],[-87.058,32.371],[-87.03,32.342],[-87.05,32.317],[-87.119,32.297],[-87.139,32.26],[-87.11,32.207],[-87.133,32.176],[-87.208,32.167],[-87.246,32.138],[-87.25,32.089],[-87.285,32.086],[-87.354,32.127],[-87.409,32.11],[-87.453,32.036],[-87.452,31.98],[-87.407,31.942],[-87.418,31.916],[-87.484,31.901],[-87.494,31.868],[-87.447,31.816],[-87.456,31.765],[-87.521,31.715],[-87.543,31.66],[-87.522,31.601],[-87.535,31.559],[-87.583,31.535],[-87.602,31.499],[-87.591,31.451],[-87.63,31.413],[-87.718,31.383],[-87.791,31.316],[-87.848,31.214],[-87.893,31.159],[-87.921,31.152],[-87.941,31.14],[-87.945,31.118],[-87.951,30.919],[-87.971,30.829],[-88.005,30.8],[-88.016,30.76],[-88.011,30.694]],[[-86.33,33.444],[-86.366,33.418],[-86.376,33.382],[-86.373,33.327],[-86.401,33.276],[-86.462,33.228],[-86.484,33.189],[-86.468,33.158],[-86.476,33.115],[-86.517,33.061],[-86.522,33.032]],[[-85.183,34.259],[-85.501,34.209],[-85.657,34.205],[-85.703,34.203],[-85.727,34.192],[-85.733,34.174],[-85.707,34.154],[-85.705,34.134],[-85.734,34.112],[-85.771,34.107],[-85.813,34.113],[-85.838,34.1],[-85.845,34.076],[-85.863,34.058],[-85.881,34.058],[-85.898,34.05],[-85.901,34.032],[-85.922,34.01],[-85.95,34.01],[-85.965,33.992],[-85.967,33.967],[-85.984,33.944],[-86.033,33.928],[-86.055,33.885],[-86.046,33.811],[-86.082,33.753],[-86.161,33.712],[-86.191,33.667],[-86.194,33.615],[-86.2,33.588]]]}},{"type":"Feature","properties":{"nombre":"Amazonas"},"geometry":{"type":"MultiLineString","coordinates":[[[-52.664,-1.552],[-52.874,-1.611],[-53,-1.668],[-53.145,-1.764],[-53.358,-1.838],[-53.639,-1.892],[-53.843,-1.958],[-53.971,-2.038],[-54.045,-2.141],[-54.064,-2.267],[-54.187,-2.358],[-54.468,-2.44],[-54.525,-2.44],[-54.564,-2.441],[-54.639,-2.419],[-54.676,-2.359],[-54.675,-2.253],[-54.694,-2.184],[-54.734,-2.152],[-54.794,-2.12],[-54.873,-2.089],[-54.957,-2.104],[-55.046,-2.167],[-55.15,-2.18],[-55.269,-2.145],[-55.375,-2.083],[-55.458,-1.987],[-55.515,-1.949],[-55.555,-1.924],[-55.606,-1.918],[-55.669,-1.927],[-55.736,-1.964],[-55.84,-1.99],[-55.981,-2.006],[-56.129,-2.08],[-56.284,-2.212],[-56.401,-2.336],[-56.48,-2.454],[-56.549,-2.527],[-56.607,-2.556],[-56.676,-2.575],[-56.756,-2.582],[-56.847,-2.567],[-56.951,-2.528],[-57.05,-2.523],[-57.143,-2.551],[-57.244,-2.526],[-57.353,-2.448],[-57.44,-2.405],[-57.506,-2.396],[-57.605,-2.481],[-57.74,-2.662],[-57.883,-2.784],[-58.035,-2.848],[-58.135,-2.959],[-58.184,-3.117],[-58.235,-3.2],[-58.268,-3.214],[-58.316,-3.212],[-58.38,-3.202],[-58.453,-3.182],[-58.549,-3.205],[-58.642,-3.304],[-58.689,-3.342],[-58.805,-3.347],[-58.89,-3.323],[-58.982,-3.271],[-59.091,-3.239],[-59.217,-3.228],[-59.381,-3.184],[-59.584,-3.109],[-59.735,-3.078],[-59.837,-3.092],[-59.897,-3.128],[-59.906,-3.171],[-59.925,-3.206],[-59.957,-3.237],[-60.105,-3.306],[-60.203,-3.325],[-60.279,-3.302],[-60.411,-3.3],[-60.598,-3.319],[-60.747,-3.398],[-60.858,-3.538],[-61.036,-3.61],[-61.28,-3.614],[-61.468,-3.676],[-61.598,-3.796],[-61.717,-3.883],[-61.824,-3.936],[-61.893,-3.947],[-62.011,-3.896],[-62.277,-3.762],[-62.367,-3.718],[-62.393,-3.716],[-62.423,-3.731],[-62.449,-3.802],[-62.543,-3.851],[-62.705,-3.878],[-62.863,-3.938],[-63.018,-4.032],[-63.097,-4.078],[-63.152,-4.072],[-63.177,-4.035],[-63.216,-3.974],[-63.283,-3.923],[-63.45,-3.871],[-63.573,-3.854],[-63.654,-3.872],[-63.747,-3.868],[-63.854,-3.843],[-64.035,-3.765],[-64.291,-3.632],[-64.458,-3.524],[-64.576,-3.398],[-64.79,-3.222],[-64.905,-3.128],[-65.07,-2.971],[-65.18,-2.835],[-65.288,-2.747],[-65.395,-2.707],[-65.459,-2.663],[-65.48,-2.615],[-65.558,-2.594],[-65.761,-2.603],[-65.901,-2.493],[-65.977,-2.466],[-66.038,-2.485],[-66.096,-2.477],[-66.153,-2.442],[-66.21,-2.46],[-66.269,-2.532],[-66.334,-2.537],[-66.405,-2.475],[-66.471,-2.439],[-66.531,-2.429],[-66.573,-2.478],[-66.596,-2.588],[-66.641,-2.659],[-66.706,-2.692],[-66.801,-2.715],[-66.925,-2.727],[-67.077,-2.695],[-67.258,-2.619],[-67.384,-2.623],[-67.455,-2.707],[-67.572,-2.779],[-67.736,-2.838],[-67.846,-2.928],[-67.932,-3.108],[-67.927,-3.223],[-67.946,-3.283],[-67.988,-3.326],[-68.095,-3.334],[-68.266,-3.307],[-68.596,-3.345],[-69.084,-3.449],[-69.352,-3.553],[-69.399,-3.655],[-69.416,-3.764],[-69.404,-3.879],[-69.425,-3.974],[-69.478,-4.049],[-69.481,-4.111],[-69.434,-4.161],[-69.459,-4.223],[-69.556,-4.299],[-69.685,-4.335],[-69.847,-4.331],[-69.948,-4.285],[-69.966,-4.236],[-70.017,-4.162],[-70.095,-4.092],[-70.168,-4.05],[-70.198,-3.995],[-70.24,-3.883],[-70.298,-3.844],[-70.339,-3.814],[-70.379,-3.819],[-70.421,-3.85],[-70.486,-3.869],[-70.53,-3.866],[-70.557,-3.87],[-70.9,-3.96],[-71.058,-3.985],[-71.138,-3.963],[-71.193,-3.903],[-71.283,-3.869],[-71.408,-3.862],[-71.521,-3.826],[-71.623,-3.761],[-71.689,-3.65],[-71.718,-3.492],[-71.752,-3.395],[-71.789,-3.359],[-71.914,-3.384],[-72.126,-3.468],[-72.293,-3.503],[-72.476,-3.481],[-72.747,-3.457],[-72.891,-3.467],[-72.997,-3.504],[-73.094,-3.562],[-73.18,-3.643],[-73.211,-3.783],[-73.189,-3.984],[-73.192,-4.099],[-73.221,-4.13],[-73.268,-4.136],[-73.334,-4.117],[-73.366,-4.133],[-73.364,-4.183],[-73.385,-4.231],[-73.431,-4.277],[-73.463,-4.336],[-73.489,-4.445]]]}},{"type":"Feature","properties":{"nombre":"Araguaia"},"geometry":{"type":"MultiLineString","coordinates":[[[-53.115,-17.855],[-53.211,-17.409],[-53.202,-17.302],[-53.158,-17.209],[-53.078,-17.095],[-53.033,-16.995],[-53.024,-16.91],[-52.943,-16.814],[-52.789,-16.705],[-52.68,-16.576],[-52.615,-16.427],[-52.545,-16.329],[-52.469,-16.282],[-52.434,-16.218],[-52.441,-16.136],[-52.417,-16.082],[-52.362,-16.058],[-52.308,-16.009],[-52.257,-15.936],[-52.141,-15.872],[-51.962,-15.819],[-51.847,-15.747],[-51.799,-15.656],[-51.779,-15.593],[-51.788,-15.557],[-51.773,-15.523],[-51.732,-15.49],[-51.696,-15.403],[-51.665,-15.261],[-51.59,-15.142],[-51.471,-15.044],[-51.372,-15.024],[-51.286,-15.003],[-51.246,-15.004],[-51.189,-14.977],[-51.114,-14.838],[-50.978,-14.463],[-50.941,-14.201],[-50.909,-14.107],[-50.868,-14.095],[-50.852,-13.995],[-50.861,-13.807],[-50.8,-13.612],[-50.667,-13.41],[-50.598,-13.249],[-50.595,-13.131],[-50.566,-13.015],[-50.484,-12.844],[-50.566,-12.82],[-50.614,-12.764],[-50.655,-12.667],[-50.66,-12.558],[-50.629,-12.437],[-50.632,-12.289],[-50.668,-12.112],[-50.675,-11.99],[-50.653,-11.922],[-50.661,-11.854],[-50.717,-11.749],[-50.666,-11.652],[-50.671,-11.574],[-50.717,-11.483],[-50.708,-11.346],[-50.645,-11.163],[-50.61,-11.001],[-50.6,-10.79],[-50.599,-10.69],[-50.551,-10.567],[-50.455,-10.388],[-50.403,-10.258],[-50.395,-10.177],[-50.337,-10.034],[-50.175,-9.73],[-50.084,-9.422],[-49.979,-9.22],[-49.83,-9.022],[-49.708,-8.895],[-49.613,-8.839],[-49.502,-8.704],[-49.374,-8.489],[-49.283,-8.301],[-49.227,-8.14],[-49.19,-7.995],[-49.172,-7.867],[-49.22,-7.752],[-49.334,-7.649],[-49.34,-7.51],[-49.24,-7.335],[-49.196,-7.167],[-49.21,-7.006],[-49.08,-6.856],[-48.805,-6.718],[-48.653,-6.596],[-48.622,-6.489],[-48.58,-6.414],[-48.527,-6.372],[-48.471,-6.353],[-48.41,-6.358],[-48.391,-6.309],[-48.414,-6.207],[-48.39,-6.142],[-48.319,-6.112],[-48.297,-6.067],[-48.321,-6.007],[-48.307,-5.966],[-48.254,-5.945],[-48.245,-5.889],[-48.28,-5.796],[-48.259,-5.724],[-48.181,-5.672],[-48.159,-5.619],[-48.193,-5.565],[-48.231,-5.533],[-48.275,-5.523],[-48.317,-5.486],[-48.357,-5.424],[-48.422,-5.398],[-48.511,-5.408],[-48.598,-5.399],[-48.723,-5.355],[-48.937,-5.303]]]}},{"type":"Feature","properties":{"nombre":"Braco Menor"},"geometry":{"type":"MultiLineString","coordinates":[[[-50.484,-12.846],[-50.392,-12.617],[-50.296,-12.49],[-50.164,-12.388],[-50.105,-12.313],[-50.12,-12.266],[-50.114,-12.209],[-50.06,-12.093],[-50.036,-12.065],[-49.999,-12.058],[-49.948,-12.071],[-49.914,-12.034],[-49.897,-11.945],[-49.904,-11.873],[-49.935,-11.816],[-49.931,-11.693],[-49.892,-11.504],[-49.889,-11.399],[-49.92,-11.376],[-49.933,-11.316],[-49.926,-11.217],[-49.939,-11.111],[-49.974,-10.998],[-49.978,-10.772],[-49.954,-10.435],[-49.963,-10.191],[-50.006,-10.04],[-50.048,-9.96],[-50.09,-9.952],[-50.126,-9.923],[-50.158,-9.873],[-50.174,-9.819],[-50.175,-9.73]]]}},{"type":"Feature","properties":{"nombre":"Branco"},"geometry":{"type":"MultiLineString","coordinates":[[[-63.78,2.846],[-63.703,3.001],[-63.699,3.075],[-63.741,3.12],[-63.761,3.163],[-63.757,3.227],[-63.779,3.464],[-63.743,3.597],[-63.658,3.705],[-63.541,3.717],[-63.392,3.634],[-63.289,3.615],[-63.231,3.66],[-63.189,3.635],[-63.161,3.539],[-63.111,3.459],[-63.04,3.393],[-62.865,3.304],[-62.586,3.194],[-62.383,3.142],[-62.256,3.148],[-62.165,3.177],[-62.11,3.227],[-62.047,3.251],[-61.975,3.247],[-61.901,3.269],[-61.825,3.316],[-61.72,3.333],[-61.585,3.321],[-61.5,3.324],[-61.446,3.355],[-61.353,3.359],[-61.299,3.382],[-61.253,3.425],[-61.095,3.452],[-60.825,3.465],[-60.666,3.455],[-60.616,3.421],[-60.569,3.318],[-60.525,3.146],[-60.576,2.947],[-60.722,2.722],[-60.801,2.54],[-60.813,2.404],[-60.871,2.284],[-60.974,2.182],[-61.03,2.113],[-61.039,2.079],[-61.023,2.03],[-60.983,1.967],[-61.026,1.864],[-61.154,1.722],[-61.256,1.471],[-61.334,1.114],[-61.46,0.815],[-61.634,0.575],[-61.755,0.25],[-61.825,-0.161],[-61.847,-0.419],[-61.812,-0.576],[-61.868,-0.792],[-61.878,-0.956],[-61.861,-1.141],[-61.863,-1.27],[-61.881,-1.389]]]}},{"type":"Feature","properties":{"nombre":"Brazos"},"geometry":{"type":"MultiLineString","coordinates":[[[-100.501,32.905],[-100.441,32.957],[-100.319,32.994],[-100.115,33.034],[-99.998,33.091],[-99.968,33.165],[-99.964,33.248],[-99.987,33.34],[-99.891,33.435],[-99.679,33.532],[-99.494,33.582],[-99.337,33.584],[-99.247,33.556],[-99.225,33.497],[-99.184,33.468],[-99.126,33.466],[-99.081,33.438],[-99.05,33.383],[-99.022,33.361],[-98.996,33.373],[-98.973,33.355],[-98.953,33.307],[-98.882,33.246],[-98.7,33.136],[-98.712,33.082],[-98.693,33.039],[-98.647,32.99],[-98.608,32.987],[-98.577,33.032],[-98.519,33.033],[-98.433,32.992],[-98.406,32.952],[-98.437,32.915],[-98.435,32.879],[-98.399,32.846],[-98.34,32.837],[-98.258,32.853],[-98.201,32.836],[-98.169,32.784],[-98.176,32.752],[-98.194,32.739],[-98.186,32.719],[-98.156,32.704],[-97.973,32.649],[-97.85,32.574],[-97.788,32.479],[-97.716,32.416],[-97.636,32.384],[-97.623,32.358],[-97.676,32.337],[-97.696,32.303],[-97.682,32.258],[-97.632,32.213],[-97.546,32.168],[-97.498,32.157],[-97.474,32.168],[-97.464,32.163],[-97.462,32.152],[-97.466,32.09],[-97.417,32.003],[-97.315,31.892],[-97.263,31.809],[-97.261,31.752],[-97.193,31.663],[-97.06,31.541],[-96.971,31.421],[-96.904,31.244],[-96.654,30.791],[-96.512,30.61],[-96.394,30.551],[-96.319,30.485],[-96.288,30.412],[-96.242,30.376],[-96.181,30.38],[-96.131,30.362],[-96.093,30.325],[-96.099,30.258],[-96.149,30.164],[-96.153,30.092],[-96.11,30.042],[-96.078,29.931],[-96.058,29.758],[-96.03,29.666],[-95.979,29.647],[-95.905,29.632],[-95.758,29.601],[-95.656,29.559],[-95.599,29.505],[-95.572,29.418],[-95.573,29.298],[-95.589,29.206],[-95.619,29.141],[-95.57,29.074],[-95.44,29.004],[-95.378,28.947],[-95.388,28.898]]]}},{"type":"Feature","properties":{"nombre":"Bío-Bío"},"geometry":{"type":"MultiLineString","coordinates":[[[-71.241,-38.77],[-71.127,-38.691],[-71.127,-38.602],[-71.241,-38.413],[-71.304,-38.353],[-71.329,-38.28],[-71.336,-38.172],[-71.401,-38.081],[-71.526,-38.007],[-71.62,-37.92],[-71.684,-37.82],[-71.754,-37.754],[-71.83,-37.721],[-71.918,-37.714],[-72.02,-37.732],[-72.09,-37.719],[-72.148,-37.652],[-72.256,-37.593],[-72.355,-37.568],[-72.482,-37.557],[-72.576,-37.531],[-72.636,-37.489],[-72.691,-37.406],[-72.741,-37.281],[-72.807,-37.205],[-72.89,-37.178],[-72.941,-37.115],[-72.958,-37.016],[-72.999,-36.927],[-73.062,-36.846],[-73.112,-36.803],[-73.133,-36.795]]]}},{"type":"Feature","properties":{"nombre":"Caquetá"},"geometry":{"type":"MultiLineString","coordinates":[[[-76.533,1.33],[-76.536,1.139],[-76.508,1.057],[-76.422,1.002],[-76.263,0.98],[-76.145,0.988],[-76.015,1.019],[-75.92,0.996],[-75.859,0.918],[-75.69,0.844],[-75.413,0.772],[-75.252,0.676],[-75.209,0.556],[-75.139,0.49],[-75.044,0.476],[-74.988,0.42],[-74.971,0.321],[-74.893,0.241],[-74.753,0.181],[-74.678,0.1],[-74.669,-0.003],[-74.638,-0.07],[-74.585,-0.101],[-74.527,-0.108],[-74.462,-0.091],[-74.404,-0.093],[-74.353,-0.113],[-74.306,-0.149],[-74.262,-0.202],[-74.166,-0.263],[-74.016,-0.334],[-73.885,-0.374],[-73.771,-0.383],[-73.693,-0.406],[-73.629,-0.463],[-73.517,-0.515],[-73.438,-0.528],[-73.356,-0.518],[-73.288,-0.536],[-73.233,-0.582],[-73.154,-0.585],[-73.05,-0.546],[-72.969,-0.545],[-72.913,-0.583],[-72.851,-0.591],[-72.784,-0.57],[-72.704,-0.591],[-72.611,-0.654],[-72.529,-0.653],[-72.458,-0.589],[-72.398,-0.575],[-72.349,-0.611],[-72.286,-0.607],[-72.209,-0.563],[-72.139,-0.593],[-72.076,-0.697],[-71.99,-0.765],[-71.883,-0.798],[-71.803,-0.847],[-71.75,-0.914],[-71.677,-0.947],[-71.584,-0.945],[-71.543,-0.978],[-71.557,-1.044],[-71.55,-1.087],[-71.523,-1.107],[-71.477,-1.111],[-71.379,-1.093],[-71.227,-1.061],[-71.13,-1.095],[-71.036,-1.184],[-70.945,-1.24],[-70.858,-1.263],[-70.778,-1.305],[-70.706,-1.367],[-70.623,-1.41],[-70.529,-1.435],[-70.44,-1.438],[-70.356,-1.419],[-70.256,-1.441],[-70.141,-1.503],[-70.067,-1.53],[-70.033,-1.52],[-69.975,-1.435],[-69.893,-1.275],[-69.801,-1.215],[-69.7,-1.255],[-69.6,-1.256],[-69.524,-1.226],[-69.462,-1.231]]]}},{"type":"Feature","properties":{"nombre":"Chattahoochee"},"geometry":{"type":"MultiLineString","coordinates":[[[-84.886,30.721],[-84.893,30.668],[-84.961,30.574],[-85.08,30.272],[-85.117,30.17],[-85.113,30.08],[-85.043,29.995],[-85.016,29.909],[-85.033,29.822],[-85.024,29.772],[-84.969,29.745]],[[-85.067,31.635],[-85.055,31.573],[-85.093,31.296],[-85.067,31.118],[-84.966,30.923]],[[-84.076,34.167],[-84.105,34.091],[-84.153,34.042],[-84.23,33.995],[-84.292,33.98],[-84.339,33.998],[-84.43,33.926],[-84.566,33.765],[-84.729,33.622],[-84.921,33.496],[-85.037,33.396],[-85.077,33.323],[-85.089,33.252],[-85.072,33.184],[-85.096,33.107],[-85.161,33.023],[-85.185,32.937],[-85.157,32.804],[-85.015,32.526],[-84.974,32.409],[-84.986,32.361],[-84.969,32.32],[-84.922,32.286],[-84.93,32.247],[-84.993,32.202],[-85.035,32.147],[-85.065,32.051]],[[-83.746,34.716],[-83.691,34.7],[-83.661,34.659],[-83.636,34.587],[-83.672,34.504],[-83.817,34.364]]]}},{"type":"Feature","properties":{"nombre":"Chixoy"},"geometry":{"type":"MultiLineString","coordinates":[[[-91.278,15.017],[-91.264,15.157],[-91.303,15.237],[-91.296,15.27],[-91.257,15.285],[-91.047,15.308],[-90.881,15.288],[-90.677,15.236],[-90.555,15.225],[-90.492,15.286],[-90.483,15.316],[-90.534,15.347],[-90.647,15.378],[-90.676,15.427],[-90.624,15.493],[-90.611,15.558],[-90.64,15.622],[-90.686,15.66],[-90.749,15.673],[-90.79,15.697],[-90.809,15.733],[-90.789,15.817],[-90.732,15.951],[-90.637,16.019],[-90.506,16.023],[-90.447,16.071],[-90.46,16.162],[-90.45,16.261],[-90.417,16.351],[-90.417,16.391]]]}},{"type":"Feature","properties":{"nombre":"Chubut"},"geometry":{"type":"MultiLineString","coordinates":[[[-71.22,-43.582],[-71.092,-43.608],[-71.013,-43.562],[-70.906,-43.396]],[[-70.899,-43.393],[-70.811,-43.096],[-70.744,-42.982],[-70.669,-42.953],[-70.626,-42.904],[-70.615,-42.835],[-70.579,-42.766],[-70.518,-42.698],[-70.461,-42.651],[-70.408,-42.625],[-70.244,-42.617],[-69.97,-42.628],[-69.784,-42.643],[-69.686,-42.664],[-69.508,-42.821],[-69.252,-43.114],[-69.134,-43.305],[-69.155,-43.391],[-69.153,-43.447],[-69.117,-43.486],[-68.976,-43.582],[-68.901,-43.668],[-68.844,-43.774],[-68.765,-43.818],[-68.665,-43.798],[-68.547,-43.806],[-68.41,-43.842],[-68.102,-43.824],[-67.358,-43.714],[-67.308,-43.714],[-67.264,-43.742],[-67.225,-43.797],[-67.16,-43.832],[-67.068,-43.846],[-66.879,-43.838],[-66.523,-43.8],[-66.493,-43.795],[-66.458,-43.768],[-66.457,-43.745],[-66.465,-43.706],[-66.444,-43.677],[-66.356,-43.619],[-66.277,-43.577],[-66.107,-43.521],[-65.982,-43.459],[-65.902,-43.392],[-65.793,-43.353],[-65.656,-43.344],[-65.551,-43.322],[-65.479,-43.288],[-65.344,-43.286],[-65.047,-43.333]]]}},{"type":"Feature","properties":{"nombre":"Coco"},"geometry":{"type":"MultiLineString","coordinates":[[[-86.844,13.42],[-86.639,13.513],[-86.492,13.61],[-86.411,13.636],[-86.346,13.622],[-86.282,13.572],[-86.217,13.487],[-86.148,13.461],[-86.075,13.493],[-86.004,13.505],[-85.935,13.496],[-85.856,13.581],[-85.769,13.759],[-85.728,13.876],[-85.731,13.932],[-85.682,13.983],[-85.58,14.028],[-85.477,14.109],[-85.374,14.224],[-85.284,14.292],[-85.208,14.312],[-85.179,14.343],[-85.198,14.386],[-85.192,14.447],[-85.161,14.525],[-85.117,14.571],[-85.059,14.583],[-85.037,14.608],[-85.049,14.645],[-85.037,14.686],[-84.985,14.752],[-84.86,14.81],[-84.789,14.79],[-84.73,14.713],[-84.646,14.661],[-84.538,14.633],[-84.454,14.644],[-84.394,14.692],[-84.34,14.706],[-84.292,14.687],[-84.267,14.698],[-84.264,14.739],[-84.239,14.748],[-84.192,14.726],[-84.151,14.72],[-84.114,14.731],[-84.1,14.751],[-84.093,14.771],[-84.066,14.786],[-83.972,14.771],[-83.867,14.794],[-83.751,14.856],[-83.674,14.884],[-83.635,14.876],[-83.59,14.908],[-83.537,14.977],[-83.415,15.008],[-83.158,14.993]]]}},{"type":"Feature","properties":{"nombre":"Colorado"},"geometry":{"type":"MultiLineString","coordinates":[[[-64.97,-38.804],[-64.596,-38.841],[-64.39,-38.878],[-64.228,-38.925],[-63.989,-39.038],[-63.674,-39.217],[-63.456,-39.316],[-63.336,-39.335],[-63.214,-39.38],[-63.091,-39.451],[-62.918,-39.499],[-62.697,-39.524],[-62.517,-39.608],[-62.309,-39.822],[-62.279,-39.852],[-62.254,-39.88]],[[-70.302,-35.288],[-70.223,-35.591],[-70.166,-35.722],[-70.072,-35.813],[-69.865,-35.86],[-69.762,-35.964],[-69.694,-36.14],[-69.671,-36.26],[-69.692,-36.324],[-69.693,-36.407],[-69.676,-36.508],[-69.694,-36.596],[-69.748,-36.67],[-69.785,-36.78],[-69.806,-36.925],[-69.797,-37.02],[-69.758,-37.064],[-69.699,-37.106],[-69.621,-37.146],[-69.463,-37.174],[-69.226,-37.19],[-69.076,-37.24],[-69.016,-37.323],[-68.87,-37.383],[-68.641,-37.422],[-68.501,-37.465],[-68.452,-37.514],[-68.273,-37.558],[-67.963,-37.598],[-67.783,-37.659],[-67.735,-37.74],[-67.751,-37.82],[-67.83,-37.901],[-67.866,-37.969],[-67.858,-38.022],[-67.824,-38.056],[-67.765,-38.069],[-67.69,-38.122],[-67.599,-38.215],[-67.46,-38.252],[-67.271,-38.232],[-67.15,-38.269],[-67.097,-38.362],[-66.993,-38.436],[-66.763,-38.516],[-66.653,-38.564],[-66.603,-38.61],[-66.576,-38.671],[-66.52,-38.71],[-66.435,-38.726],[-66.068,-38.74],[-65.893,-38.761],[-65.757,-38.799],[-65.658,-38.807],[-65.595,-38.786],[-65.514,-38.791],[-65.416,-38.823],[-65.27,-38.83],[-64.978,-38.804]],[[-114.721,32.724],[-114.788,32.565],[-114.839,32.504],[-114.897,32.49],[-114.959,32.42],[-115.025,32.294],[-115.093,32.213],[-115.164,32.176],[-115.199,32.124],[-115.196,32.058],[-115.187,32.044],[-115.173,32.045],[-115.153,32.036],[-115.126,31.988],[-115.093,31.965],[-115.035,31.966],[-115.009,31.946],[-114.981,31.918],[-114.934,31.901]],[[-114.164,34.253],[-114.329,34.142],[-114.418,34.051],[-114.509,33.904],[-114.495,33.785],[-114.499,33.686],[-114.522,33.608],[-114.556,33.536],[-114.603,33.47],[-114.651,33.431],[-114.702,33.418],[-114.719,33.331],[-114.704,33.17],[-114.648,33.072],[-114.551,33.037],[-114.491,32.984],[-114.469,32.912],[-114.478,32.842],[-114.516,32.773],[-114.582,32.735],[-114.721,32.724]],[[-114.591,35.353],[-114.611,34.998],[-114.611,34.907],[-114.557,34.795],[-114.398,34.59],[-114.379,34.541]],[[-114.741,36.014],[-114.732,35.984],[-114.687,35.917],[-114.684,35.814],[-114.677,35.73],[-114.65,35.684],[-114.645,35.631]],[[-112.876,36.28],[-113.206,36.124],[-113.296,36.048],[-113.325,35.995],[-113.323,35.835],[-113.356,35.764],[-113.422,35.762],[-113.579,35.801],[-113.636,35.831]],[[-111.473,36.932],[-111.591,36.85],[-111.683,36.748],[-111.788,36.599],[-111.852,36.488],[-111.874,36.414],[-111.865,36.32],[-111.826,36.206],[-111.834,36.126],[-111.891,36.081],[-111.995,36.073],[-112.147,36.102],[-112.256,36.151],[-112.322,36.221],[-112.377,36.246],[-112.42,36.226],[-112.459,36.229],[-112.495,36.254],[-112.499,36.288],[-112.471,36.332],[-112.467,36.366],[-112.489,36.389],[-112.533,36.401],[-112.598,36.402],[-112.693,36.372],[-112.881,36.28]],[[-105.861,40.165],[-105.985,40.127],[-106.126,40.093],[-106.285,40.091],[-106.401,40.062],[-106.482,40.019],[-106.595,39.923],[-106.638,39.894],[-106.676,39.89],[-106.726,39.92],[-106.793,39.924],[-106.877,39.902],[-106.969,39.828],[-107.071,39.701],[-107.132,39.644],[-107.235,39.602],[-107.541,39.579],[-107.734,39.579],[-107.847,39.557],[-107.944,39.512],[-108.106,39.41],[-108.242,39.315],[-108.314,39.178],[-108.434,39.099],[-108.558,39.09],[-108.801,39.184],[-108.867,39.201],[-108.952,39.198],[-109.051,39.141],[-109.196,39.033],[-109.265,38.935],[-109.306,38.812],[-109.363,38.734],[-109.434,38.702],[-109.499,38.651],[-109.556,38.581],[-109.596,38.554],[-109.614,38.561],[-109.635,38.546],[-109.648,38.485],[-109.67,38.453],[-109.7,38.449],[-109.723,38.414],[-109.739,38.35],[-109.785,38.279],[-109.897,38.165],[-110.131,37.962],[-110.248,37.895],[-110.368,37.898]],[[-105.846,40.404],[-105.816,40.215],[-105.821,40.185]]]}},{"type":"Feature","properties":{"nombre":"Culuene"},"geometry":{"type":"MultiLineString","coordinates":[[[-54.609,-14.984],[-54.357,-14.897],[-54.251,-14.837],[-54.207,-14.775],[-54.136,-14.758],[-54.04,-14.786],[-53.967,-14.79],[-53.894,-14.761],[-53.659,-14.592],[-53.512,-14.346],[-53.374,-13.968],[-53.269,-13.736],[-53.197,-13.651],[-53.16,-13.583],[-53.159,-13.532],[-53.08,-13.344],[-52.922,-13.019],[-52.877,-12.807],[-52.945,-12.71],[-52.97,-12.644],[-52.953,-12.611],[-53.004,-12.517],[-53.125,-12.361],[-53.213,-12.268],[-53.27,-12.235],[-53.329,-12.161],[-53.391,-12.047],[-53.459,-11.966],[-53.532,-11.918],[-53.579,-11.846],[-53.599,-11.75],[-53.567,-11.637],[-53.444,-11.444]]]}},{"type":"Feature","properties":{"nombre":"Desaguadero"},"geometry":{"type":"MultiLineString","coordinates":[[[-67.362,-32.397],[-67.235,-32.67],[-67.201,-32.8],[-67.218,-32.877],[-67.208,-33.044],[-67.171,-33.301],[-67.051,-33.588],[-66.848,-33.905],[-66.75,-34.094],[-66.756,-34.154],[-66.775,-34.196],[-66.806,-34.218],[-66.819,-34.268],[-66.815,-34.346],[-66.794,-34.442],[-66.757,-34.558],[-66.697,-34.675],[-66.614,-34.794],[-66.555,-34.921],[-66.522,-35.056],[-66.534,-35.346],[-66.592,-35.79],[-66.679,-36.078],[-66.793,-36.209],[-66.833,-36.395],[-66.797,-36.635],[-66.795,-36.8],[-66.828,-36.889],[-66.828,-36.99],[-66.794,-37.103],[-66.796,-37.173],[-66.832,-37.201],[-66.784,-37.251],[-66.651,-37.325],[-66.542,-37.407],[-66.458,-37.498],[-66.371,-37.544],[-66.279,-37.547],[-66.211,-37.606],[-66.168,-37.722],[-66.067,-37.799],[-65.91,-37.838],[-65.822,-37.915],[-65.802,-38.029],[-65.818,-38.097],[-65.87,-38.117],[-65.912,-38.161],[-65.946,-38.228],[-65.912,-38.282],[-65.81,-38.324],[-65.743,-38.37],[-65.712,-38.422],[-65.63,-38.489],[-65.494,-38.571],[-65.313,-38.66],[-64.97,-38.804]]]}},{"type":"Feature","properties":{"nombre":"Double Mountain Fork Brazos"},"geometry":{"type":"MultiLineString","coordinates":[[[-101.667,33.54],[-101.426,33.4],[-101.323,33.266],[-101.253,33.201],[-101.18,33.16],[-101.107,33.14],[-100.995,33.14],[-100.832,33.103],[-100.709,33.044],[-100.501,32.905]]]}},{"type":"Feature","properties":{"nombre":"Gila"},"geometry":{"type":"MultiLineString","coordinates":[[[-111.249,33.104],[-111.455,33.04],[-111.648,33.054],[-111.899,33.126],[-112.122,33.222],[-112.32,33.342],[-112.511,33.372],[-112.697,33.311],[-112.767,33.238],[-112.72,33.154],[-112.704,33.087],[-112.717,33.036],[-112.809,33.03],[-112.98,33.067],[-113.084,33.067],[-113.12,33.03],[-113.197,33.001],[-113.317,32.979],[-113.525,32.906],[-113.824,32.782],[-114.005,32.725],[-114.068,32.735],[-114.13,32.725],[-114.19,32.696],[-114.261,32.709],[-114.344,32.763],[-114.428,32.776],[-114.582,32.735]],[[-108.204,33.577],[-108.114,33.413],[-108.246,33.176],[-108.348,33.091],[-108.464,33.079],[-108.555,32.992],[-108.62,32.828],[-108.71,32.718],[-108.825,32.659],[-108.944,32.657],[-109.067,32.711],[-109.156,32.786],[-109.209,32.881],[-109.264,32.94],[-109.321,32.962],[-109.397,32.943],[-109.492,32.884],[-109.591,32.853],[-109.695,32.85],[-109.846,32.932],[-110.042,33.099],[-110.226,33.186],[-110.398,33.193],[-110.554,33.15],[-110.694,33.056],[-110.814,33.038],[-110.916,33.095],[-111.039,33.121],[-111.256,33.112]]]}},{"type":"Feature","properties":{"nombre":"Grande"},"geometry":{"type":"MultiLineString","coordinates":[[[-44.45,-22.155],[-44.304,-22.047],[-44.208,-21.948],[-44.112,-21.822],[-44.062,-21.734],[-44.058,-21.684],[-44.068,-21.658],[-44.093,-21.657],[-44.127,-21.613],[-44.171,-21.524],[-44.241,-21.476],[-44.387,-21.465]],[[-44.616,-21.318],[-44.686,-21.236],[-44.739,-21.206],[-44.799,-21.201],[-44.857,-21.176],[-44.915,-21.13],[-44.971,-21.125],[-45.026,-21.161],[-45.076,-21.175],[-45.122,-21.169],[-45.164,-21.14],[-45.205,-21.093]],[[-46.326,-20.668],[-46.587,-20.623]],[[-47.073,-20.284],[-47.329,-20.118],[-47.428,-20.036],[-47.46,-20.001],[-47.518,-19.994],[-47.594,-20.019],[-47.656,-20.023],[-47.696,-19.991],[-47.75,-19.977],[-47.819,-19.981],[-47.86,-20.012],[-47.862,-20.056],[-47.909,-20.082],[-47.991,-20.083],[-48.051,-20.12],[-48.109,-20.117],[-48.178,-20.083],[-48.253,-20.093],[-48.361,-20.139],[-48.716,-20.144],[-48.812,-20.159],[-48.858,-20.233],[-48.887,-20.37],[-48.918,-20.429],[-48.952,-20.41],[-48.978,-20.338],[-48.995,-20.214],[-49.04,-20.187],[-49.113,-20.259],[-49.166,-20.295],[-49.2,-20.294],[-49.239,-20.246],[-49.284,-20.149],[-49.29,-20.072],[-49.259,-20.017],[-49.278,-19.987],[-49.385,-19.98]],[[-50.364,-19.859],[-50.434,-19.8],[-50.489,-19.791],[-50.584,-19.821]],[[-63.757,-19.028],[-63.619,-19.071],[-63.565,-19.049],[-63.548,-18.977],[-63.497,-18.928],[-63.411,-18.904],[-63.31,-18.847],[-63.195,-18.756],[-63.074,-18.615],[-62.949,-18.425],[-62.858,-18.197],[-62.773,-17.799],[-62.786,-17.598],[-62.775,-17.465],[-62.743,-17.334],[-62.738,-17.243],[-62.762,-17.192],[-62.823,-17.151],[-62.922,-17.121],[-63,-17.031],[-63.059,-16.88],[-63.259,-16.732],[-63.601,-16.585],[-63.804,-16.449],[-63.869,-16.322],[-63.965,-16.237],[-64.092,-16.192],[-64.162,-16.148],[-64.176,-16.104],[-64.303,-16.027],[-64.664,-15.86]],[[-66.323,-17.577],[-66.019,-17.862],[-65.96,-17.952],[-65.916,-17.978],[-65.868,-17.972],[-65.793,-18.009],[-65.642,-18.129],[-65.39,-18.371],[-65.287,-18.493],[-65.25,-18.575],[-65.19,-18.626],[-65.108,-18.645],[-65.051,-18.63],[-65.018,-18.581],[-64.956,-18.538],[-64.863,-18.503],[-64.756,-18.53],[-64.635,-18.621],[-64.529,-18.651],[-64.437,-18.618],[-64.342,-18.686],[-64.242,-18.855],[-64.16,-18.954],[-64.097,-18.985],[-64.05,-19.042],[-64.021,-19.126],[-63.985,-19.165],[-63.94,-19.158],[-63.906,-19.122],[-63.884,-19.058],[-63.842,-19.027],[-63.751,-19.028]]]}},{"type":"Feature","properties":{"nombre":"Guaporé"},"geometry":{"type":"MultiLineString","coordinates":[[[-65.031,-11.913],[-65.037,-11.829],[-65.09,-11.741],[-65.115,-11.735],[-65.143,-11.752],[-65.163,-11.765],[-65.186,-11.75],[-65.19,-11.71],[-65.175,-11.647],[-65.206,-11.581],[-65.282,-11.511],[-65.322,-11.439],[-65.325,-11.365],[-65.342,-11.315],[-65.373,-11.29],[-65.39,-11.246],[-65.394,-11.184],[-65.372,-11.11],[-65.324,-11.025],[-65.334,-10.893],[-65.402,-10.715],[-65.44,-10.586],[-65.447,-10.507],[-65.437,-10.449],[-65.395,-10.392]]]}},{"type":"Feature","properties":{"nombre":"Indaiá"},"geometry":{"type":"MultiLineString","coordinates":[[[-46.499,-20.321],[-46.322,-20.352],[-46.097,-20.348],[-46.002,-20.337],[-45.961,-20.318],[-45.947,-20.296],[-45.961,-20.273],[-45.943,-20.231],[-45.896,-20.173],[-45.819,-20.14],[-45.714,-20.133],[-45.64,-20.068],[-45.598,-19.945],[-45.554,-19.87],[-45.506,-19.841],[-45.492,-19.8],[-45.513,-19.746],[-45.496,-19.688],[-45.443,-19.626],[-45.395,-19.524],[-45.352,-19.383],[-45.281,-19.284],[-45.182,-19.227],[-45.121,-19.161],[-45.089,-19.051]]]}},{"type":"Feature","properties":{"nombre":"Japurá"},"geometry":{"type":"MultiLineString","coordinates":[[[-69.462,-1.231],[-69.452,-1.299],[-69.447,-1.448],[-69.339,-1.605],[-69.128,-1.754],[-68.914,-1.818],[-68.699,-1.797],[-68.458,-1.748],[-68.191,-1.672],[-67.964,-1.639],[-67.776,-1.651],[-67.629,-1.685],[-67.525,-1.742],[-67.361,-1.798],[-67.138,-1.854],[-66.805,-1.823],[-66.363,-1.706],[-65.981,-1.716],[-65.658,-1.853],[-65.445,-1.905],[-65.344,-1.869],[-65.268,-1.904],[-65.193,-2.063],[-65.227,-2.138],[-65.18,-2.266],[-65.066,-2.472],[-65.009,-2.606],[-65.011,-2.667],[-64.979,-2.709],[-64.914,-2.733],[-64.889,-2.777],[-64.903,-2.842],[-64.875,-2.927],[-64.802,-3.031],[-64.774,-3.109],[-64.79,-3.222]]]}},{"type":"Feature","properties":{"nombre":"Jequitinhonha"},"geometry":{"type":"MultiLineString","coordinates":[[[-43.409,-18.294],[-43.532,-18.104],[-43.559,-18.012],[-43.515,-17.923],[-43.476,-17.839],[-43.494,-17.818],[-43.558,-17.832],[-43.611,-17.786],[-43.655,-17.68],[-43.665,-17.608],[-43.642,-17.57],[-43.57,-17.505],[-43.488,-17.496],[-43.365,-17.507],[-43.299,-17.476],[-43.233,-17.418],[-43.213,-17.339],[-43.181,-17.304],[-43.118,-17.279],[-43.048,-17.212],[-42.972,-17.105],[-42.905,-17.046],[-42.846,-17.035],[-42.777,-16.96],[-42.698,-16.819],[-42.555,-16.716],[-42.347,-16.651],[-42.178,-16.651],[-42.046,-16.717],[-41.919,-16.703],[-41.796,-16.61],[-41.687,-16.562],[-41.548,-16.56],[-41.332,-16.524],[-41.236,-16.486],[-41.187,-16.435],[-41.124,-16.416],[-41.044,-16.43],[-40.908,-16.355],[-40.715,-16.19],[-40.52,-16.116],[-40.324,-16.134],[-40.17,-16.125],[-40.059,-16.092],[-39.99,-16.056],[-39.963,-16.019],[-39.84,-15.986],[-39.513,-15.942],[-39.402,-16.025],[-39.323,-16.04],[-39.237,-16.015],[-39.164,-15.955],[-39.104,-15.86],[-39.021,-15.821],[-38.949,-15.825],[-38.885,-15.842]]]}},{"type":"Feature","properties":{"nombre":"Juruena"},"geometry":{"type":"MultiLineString","coordinates":[[[-59.07,-14.532],[-59.036,-14.373],[-59.038,-14.249],[-59.077,-14.038],[-59.041,-13.979],[-59.026,-13.821],[-59.019,-13.544],[-58.997,-13.367],[-58.96,-13.289],[-58.933,-12.998],[-58.915,-12.494],[-58.863,-12.181],[-58.778,-12.058],[-58.731,-11.92],[-58.724,-11.769],[-58.699,-11.657],[-58.654,-11.586],[-58.628,-11.503],[-58.622,-11.407],[-58.633,-11.364],[-58.669,-11.33],[-58.68,-11.234],[-58.659,-10.975]]]}},{"type":"Feature","properties":{"nombre":"Madeira"},"geometry":{"type":"MultiLineString","coordinates":[[[-65.395,-10.392],[-65.313,-10.253],[-65.299,-10.147],[-65.325,-10.027],[-65.328,-9.936],[-65.309,-9.873],[-65.338,-9.79],[-65.414,-9.689],[-65.422,-9.611],[-65.361,-9.556],[-65.233,-9.546],[-65.038,-9.581],[-64.914,-9.583],[-64.863,-9.554],[-64.833,-9.499],[-64.827,-9.416],[-64.802,-9.372],[-64.759,-9.367],[-64.701,-9.32],[-64.627,-9.231],[-64.534,-9.185],[-64.423,-9.181],[-64.341,-9.138],[-64.287,-9.056],[-64.216,-9.002],[-64.127,-8.976],[-64.08,-8.937],[-64.075,-8.884],[-64.035,-8.832],[-63.96,-8.783],[-63.919,-8.729],[-63.913,-8.672],[-63.849,-8.619],[-63.728,-8.572],[-63.636,-8.556],[-63.571,-8.571],[-63.547,-8.555],[-63.562,-8.507],[-63.545,-8.466],[-63.495,-8.432],[-63.438,-8.358],[-63.343,-8.186],[-63.245,-8.215],[-63.131,-8.177],[-62.888,-8.034],[-62.867,-7.945],[-62.9,-7.803],[-62.98,-7.577],[-62.98,-7.351],[-62.898,-7.123],[-62.824,-7.004],[-62.757,-6.994],[-62.688,-6.934],[-62.615,-6.823],[-62.529,-6.762],[-62.429,-6.752],[-62.367,-6.723],[-62.344,-6.675],[-62.344,-6.634],[-62.367,-6.598],[-62.348,-6.538],[-62.288,-6.454],[-62.25,-6.367],[-62.234,-6.278],[-62.184,-6.23],[-62.126,-6.222],[-62.092,-6.218],[-62.058,-6.22],[-61.905,-6.236],[-61.844,-6.21],[-61.827,-6.147],[-61.78,-6.086],[-61.706,-6.026],[-61.668,-5.973],[-61.668,-5.927],[-61.648,-5.901],[-61.609,-5.896],[-61.599,-5.881],[-61.62,-5.856],[-61.549,-5.838],[-61.385,-5.827],[-61.289,-5.781],[-61.258,-5.699],[-61.117,-5.615],[-60.865,-5.529],[-60.734,-5.448],[-60.725,-5.37],[-60.647,-5.293],[-60.529,-5.23],[-60.459,-5.199],[-60.425,-5.176],[-60.388,-5.147],[-60.362,-5.103],[-60.26,-4.977],[-60.171,-4.913],[-60.105,-4.917],[-60.037,-4.897],[-59.966,-4.851],[-59.931,-4.791],[-59.931,-4.714],[-59.914,-4.671],[-59.883,-4.595],[-59.786,-4.432],[-59.699,-4.367],[-59.648,-4.364],[-59.603,-4.37],[-59.574,-4.366],[-59.548,-4.357],[-59.521,-4.342],[-59.489,-4.318],[-59.427,-4.25],[-59.362,-4.156],[-59.328,-4.045],[-59.253,-3.952],[-59.138,-3.875],[-59.083,-3.798],[-59.09,-3.72],[-58.997,-3.596],[-58.689,-3.342]]]}},{"type":"Feature","properties":{"nombre":"Madre de Dios"},"geometry":{"type":"MultiLineString","coordinates":[[[-72.165,-12.182],[-72.094,-12.063],[-72.093,-11.96],[-72.139,-11.835],[-72.117,-11.742],[-72.028,-11.683],[-71.931,-11.659],[-71.776,-11.675],[-71.604,-11.688],[-71.533,-11.716],[-71.503,-11.765],[-71.399,-11.848],[-71.221,-11.965],[-71.086,-12.08],[-70.997,-12.192],[-70.91,-12.259],[-70.825,-12.278],[-70.754,-12.33],[-70.695,-12.412],[-70.59,-12.489],[-70.438,-12.561],[-70.319,-12.598],[-70.232,-12.6],[-70.18,-12.589],[-70.155,-12.565],[-70.115,-12.568],[-70.026,-12.586],[-69.768,-12.655],[-69.578,-12.661],[-69.455,-12.603],[-69.391,-12.559],[-69.344,-12.554],[-69.309,-12.568],[-69.268,-12.582],[-69.235,-12.575],[-69.215,-12.552],[-69.187,-12.548],[-69.156,-12.573],[-69.107,-12.574],[-69.063,-12.543],[-69.008,-12.534],[-68.949,-12.556],[-68.859,-12.548],[-68.678,-12.495],[-68.606,-12.429],[-68.556,-12.409],[-68.503,-12.414],[-68.455,-12.373],[-68.412,-12.286],[-68.354,-12.22],[-68.282,-12.176],[-68.239,-12.12],[-68.223,-12.053],[-68.16,-12.005],[-68.051,-11.974],[-67.976,-11.897],[-67.936,-11.773],[-67.881,-11.704],[-67.811,-11.688],[-67.749,-11.635],[-67.695,-11.546],[-67.641,-11.494],[-67.588,-11.481],[-67.519,-11.498],[-67.436,-11.545],[-67.36,-11.551],[-67.293,-11.514],[-67.239,-11.463],[-67.198,-11.397],[-67.127,-11.36],[-66.976,-11.344],[-66.96,-11.294],[-66.916,-11.276],[-66.838,-11.274],[-66.803,-11.254],[-66.786,-11.222],[-66.749,-11.23],[-66.673,-11.205],[-66.567,-11.132],[-66.48,-11.095],[-66.413,-11.095],[-66.37,-11.062],[-66.343,-11.026],[-66.315,-11.018],[-66.276,-11.007],[-66.214,-10.95],[-66.158,-10.947],[-66.118,-10.957],[-66.079,-10.937],[-66.065,-10.893],[-66.061,-10.861],[-66.092,-10.848],[-66.084,-10.828],[-66.036,-10.802],[-65.983,-10.795],[-65.924,-10.806],[-65.902,-10.78],[-65.897,-10.725],[-65.874,-10.696],[-65.82,-10.697],[-65.78,-10.667],[-65.768,-10.598],[-65.74,-10.566],[-65.696,-10.57],[-65.604,-10.527],[-65.395,-10.392]]]}},{"type":"Feature","properties":{"nombre":"Magdalena"},"geometry":{"type":"MultiLineString","coordinates":[[[-76.507,1.943],[-76.281,1.896],[-76.179,1.898],[-76.097,1.948],[-75.791,2.118],[-75.69,2.198],[-75.692,2.246],[-75.662,2.297],[-75.599,2.352],[-75.572,2.401],[-75.583,2.446],[-75.518,2.57],[-75.376,2.774],[-75.292,2.981],[-75.266,3.19],[-75.159,3.461],[-74.971,3.793],[-74.858,4.038],[-74.82,4.194],[-74.824,4.274],[-74.869,4.278],[-74.861,4.422],[-74.771,4.848],[-74.756,5.189],[-74.723,5.367],[-74.668,5.498],[-74.646,5.615],[-74.657,5.72],[-74.641,5.829],[-74.596,5.944],[-74.576,6.055],[-74.579,6.162],[-74.531,6.265],[-74.433,6.363],[-74.385,6.465],[-74.386,6.573],[-74.317,6.667],[-74.178,6.749],[-74.053,6.848],[-73.943,6.962],[-73.9,7.078],[-73.925,7.195],[-73.907,7.385],[-73.846,7.648],[-73.83,7.846],[-73.858,7.979],[-73.852,8.071],[-73.79,8.15]],[[-73.796,8.15],[-73.765,8.329],[-73.784,8.535],[-73.843,8.827],[-73.942,8.992],[-74.083,9.03],[-74.223,9.104],[-74.361,9.213],[-74.456,9.261],[-74.507,9.249],[-74.559,9.278],[-74.611,9.347],[-74.663,9.391],[-74.742,9.418],[-74.786,9.441],[-74.795,9.494],[-74.786,9.586],[-74.806,9.691],[-74.854,9.81],[-74.86,9.909],[-74.823,9.986],[-74.84,10.06],[-74.912,10.13],[-74.892,10.275],[-74.781,10.495],[-74.727,10.684],[-74.728,10.841],[-74.761,10.972],[-74.845,11.11]]]}},{"type":"Feature","properties":{"nombre":"Mamoré"},"geometry":{"type":"MultiLineString","coordinates":[[[-64.664,-15.86],[-64.72,-15.799],[-64.769,-15.676],[-64.828,-15.469],[-64.89,-15.323],[-64.954,-15.237],[-64.998,-15.157],[-65.021,-15.083],[-65.02,-15.025],[-64.996,-14.981],[-65.017,-14.892],[-65.082,-14.756],[-65.087,-14.717],[-65.066,-14.697],[-65.025,-14.615],[-64.978,-14.446],[-64.976,-14.327],[-65.019,-14.257],[-65.038,-14.199],[-65.034,-14.153],[-65.062,-14.086],[-65.121,-13.997],[-65.167,-13.952],[-65.199,-13.949],[-65.211,-13.917],[-65.201,-13.855],[-65.232,-13.781],[-65.304,-13.694],[-65.302,-13.533],[-65.226,-13.299],[-65.191,-13.204],[-65.183,-13.144],[-65.137,-13.112],[-65.118,-13.053],[-65.099,-13.022],[-65.056,-12.998],[-65.029,-12.937],[-65.017,-12.839],[-65.053,-12.694],[-65.137,-12.501],[-65.169,-12.39],[-65.15,-12.361],[-65.151,-12.335],[-65.171,-12.311],[-65.169,-12.292],[-65.142,-12.268],[-65.145,-12.235],[-65.173,-12.165],[-65.155,-12.126],[-65.122,-12.111],[-65.114,-12.081],[-65.126,-12.027],[-65.114,-11.986],[-65.061,-11.955],[-65.031,-11.913]]]}},{"type":"Feature","properties":{"nombre":"Marañón"},"geometry":{"type":"MultiLineString","coordinates":[[[-76.617,-9.913],[-76.711,-9.64],[-76.765,-9.473],[-76.766,-9.365],[-76.733,-9.26],[-76.835,-9.117],[-77.073,-8.937],[-77.224,-8.769],[-77.29,-8.612],[-77.346,-8.522],[-77.392,-8.496],[-77.437,-8.424],[-77.483,-8.304],[-77.534,-8.215],[-77.592,-8.158],[-77.621,-8.057],[-77.622,-7.91],[-77.719,-7.628],[-77.909,-7.21],[-78.01,-6.936],[-78.02,-6.805],[-78.062,-6.67],[-78.138,-6.529],[-78.219,-6.432],[-78.306,-6.378],[-78.374,-6.301],[-78.45,-6.15],[-78.568,-6.089],[-78.643,-6.017],[-78.716,-5.915],[-78.703,-5.762],[-78.603,-5.561],[-78.528,-5.446],[-78.479,-5.417],[-78.456,-5.355],[-78.459,-5.259],[-78.434,-5.198],[-78.382,-5.171],[-78.366,-5.114],[-78.387,-5.027],[-78.382,-4.964],[-78.35,-4.924],[-78.335,-4.871],[-78.336,-4.804],[-78.305,-4.762],[-78.242,-4.744],[-78.207,-4.708],[-78.202,-4.653],[-78.163,-4.632],[-78.091,-4.646],[-77.958,-4.598],[-77.763,-4.488],[-77.623,-4.433],[-77.538,-4.434],[-77.473,-4.45],[-77.43,-4.481],[-77.408,-4.526],[-77.41,-4.584],[-77.387,-4.617],[-77.342,-4.623],[-77.333,-4.642],[-77.344,-4.651],[-77.338,-4.683],[-77.307,-4.729],[-77.282,-4.732],[-77.263,-4.69],[-77.169,-4.708],[-77.002,-4.784],[-76.832,-4.822],[-76.659,-4.823],[-76.566,-4.84],[-76.552,-4.873],[-76.511,-4.901],[-76.442,-4.926],[-76.352,-4.935],[-76.24,-4.928],[-76.173,-4.944],[-76.137,-4.999],[-75.841,-5.039],[-75.723,-5.043],[-75.686,-5.025],[-75.654,-5.031],[-75.629,-5.062],[-75.559,-5.006],[-75.445,-4.865],[-75.259,-4.78],[-75.002,-4.751],[-74.847,-4.691],[-74.796,-4.6],[-74.722,-4.529],[-74.625,-4.478],[-74.549,-4.485],[-74.492,-4.549],[-74.413,-4.606],[-74.312,-4.654],[-74.247,-4.638],[-74.218,-4.556],[-74.177,-4.502],[-74.125,-4.477],[-74.053,-4.474],[-73.962,-4.491],[-73.888,-4.531],[-73.829,-4.592],[-73.724,-4.579],[-73.489,-4.445]]]}},{"type":"Feature","properties":{"nombre":"Mendoza"},"geometry":{"type":"MultiLineString","coordinates":[[[-70.136,-32.238],[-70.043,-32.334],[-69.97,-32.355],[-69.889,-32.332],[-69.833,-32.281],[-69.803,-32.202],[-69.796,-32.144],[-69.81,-32.106],[-69.787,-32.033],[-69.698,-31.871],[-69.589,-31.782],[-69.521,-31.693],[-69.458,-31.574],[-69.427,-31.455],[-69.429,-31.304],[-69.418,-31.283]]]}},{"type":"Feature","properties":{"nombre":"Meta"},"geometry":{"type":"MultiLineString","coordinates":[[[-73.872,4.67],[-73.909,4.608],[-73.917,4.541],[-73.908,4.447],[-73.886,4.365],[-73.831,4.258],[-73.741,4.193],[-73.719,4.142],[-73.733,4.083],[-73.571,4.022],[-73.233,3.96],[-73.034,3.958],[-72.976,4.014],[-72.927,4.1],[-72.885,4.215],[-72.836,4.282],[-72.748,4.313],[-72.479,4.332],[-72.373,4.356],[-72.34,4.392],[-72.28,4.42],[-72.193,4.44],[-72.116,4.438],[-72.047,4.412],[-71.962,4.443],[-71.86,4.533],[-71.661,4.637],[-71.364,4.756],[-71.174,4.844],[-71.09,4.901],[-71.027,4.977],[-70.982,5.071],[-70.894,5.167],[-70.762,5.265],[-70.687,5.336],[-70.671,5.382],[-70.52,5.465],[-70.234,5.585],[-70.03,5.743],[-69.907,5.939],[-69.768,6.043],[-69.611,6.056],[-69.507,6.077],[-69.432,6.122],[-69.357,6.148],[-69.311,6.138],[-69.268,6.1],[-69.195,6.115],[-69.09,6.184],[-68.937,6.198],[-68.736,6.157],[-68.472,6.157],[-68.143,6.198],[-67.939,6.242],[-67.859,6.29],[-67.727,6.285],[-67.423,6.202]]]}},{"type":"Feature","properties":{"nombre":"Mississippi"},"geometry":{"type":"MultiLineString","coordinates":[[[-89.376,28.981],[-89.257,29.155],[-89.016,29.203]],[[-89.261,29.155],[-89.289,29.178]],[[-89.289,29.178],[-89.181,29.336]],[[-89.289,29.178],[-89.433,29.294],[-89.519,29.347],[-89.616,29.387],[-89.666,29.416],[-89.67,29.444],[-89.714,29.486],[-89.758,29.506],[-89.869,29.608],[-89.973,29.689],[-90.007,29.754],[-90.012,29.811],[-89.987,29.86],[-89.958,29.876],[-89.932,29.878],[-89.923,29.888],[-89.923,29.903],[-89.933,29.914],[-90.041,29.932],[-90.25,29.943],[-90.39,29.976],[-90.464,30.032],[-90.582,30.048],[-90.744,30.023],[-90.849,30.04],[-90.878,30.075],[-90.897,30.098],[-90.944,30.127],[-90.99,30.126],[-91.021,30.147],[-91.038,30.181],[-91.074,30.204],[-91.11,30.209],[-91.133,30.227],[-91.13,30.248],[-91.148,30.268],[-91.179,30.285],[-91.191,30.307],[-91.187,30.328],[-91.195,30.352],[-91.226,30.368],[-91.235,30.402],[-91.218,30.479],[-91.226,30.505],[-91.258,30.534],[-91.257,30.565],[-91.276,30.615],[-91.338,30.706],[-91.388,30.744],[-91.423,30.753],[-91.529,30.756],[-91.557,30.78],[-91.547,30.815],[-91.523,30.854],[-91.526,30.871],[-91.546,30.908],[-91.618,30.938],[-91.646,30.952],[-91.66,30.972],[-91.657,30.996],[-91.653,31.03],[-91.611,31.065],[-91.596,31.11],[-91.631,31.218],[-91.618,31.277],[-91.559,31.288],[-91.529,31.345],[-91.529,31.449],[-91.506,31.519],[-91.459,31.555],[-91.415,31.64],[-91.373,31.774],[-91.286,31.884],[-91.157,31.971],[-91.093,32.046],[-91.089,32.104],[-91.075,32.131],[-91.048,32.146],[-91.005,32.186],[-90.948,32.24],[-90.938,32.277],[-90.94,32.303],[-90.945,32.331],[-90.99,32.381],[-91.059,32.424],[-91.104,32.49],[-91.101,32.541],[-91.116,32.586],[-91.15,32.625],[-91.142,32.661],[-91.094,32.694],[-91.092,32.726],[-91.136,32.756],[-91.136,32.809],[-91.093,32.885],[-91.096,32.938],[-91.144,32.967],[-91.153,33.041],[-91.107,33.218],[-91.117,33.241],[-91.163,33.294],[-91.168,33.359],[-91.141,33.439],[-91.154,33.5],[-91.193,33.523],[-91.203,33.547],[-91.215,33.583],[-91.173,33.617],[-91.17,33.647],[-91.207,33.676],[-91.184,33.716],[-91.1,33.767],[-91.077,33.797],[-91.053,33.828],[-91.038,33.901],[-91.05,33.945],[-91.07,33.974],[-91.06,33.989],[-91.043,34.003],[-90.943,34.03],[-90.915,34.049],[-90.909,34.072],[-90.94,34.129],[-90.91,34.189],[-90.817,34.252],[-90.768,34.308],[-90.762,34.356],[-90.718,34.392],[-90.635,34.414],[-90.584,34.504],[-90.564,34.661],[-90.539,34.728],[-90.497,34.738],[-90.475,34.76],[-90.468,34.805],[-90.416,34.852],[-90.32,34.899],[-90.282,34.945],[-90.293,34.97],[-90.294,35.004],[-90.256,35.046],[-90.142,35.114],[-90.093,35.204],[-90.108,35.314],[-90.066,35.414],[-89.967,35.503],[-89.927,35.592],[-89.943,35.679],[-89.895,35.751],[-89.78,35.806],[-89.764,35.828],[-89.768,35.845],[-89.77,35.864],[-89.769,35.872],[-89.764,35.889],[-89.738,35.899],[-89.704,35.907],[-89.689,35.921],[-89.689,35.944],[-89.709,35.983],[-89.698,36.03],[-89.642,36.105],[-89.634,36.168],[-89.675,36.221],[-89.654,36.248],[-89.628,36.255],[-89.595,36.259],[-89.584,36.272],[-89.584,36.288],[-89.612,36.322],[-89.604,36.352],[-89.555,36.373],[-89.541,36.427],[-89.56,36.513],[-89.555,36.541],[-89.55,36.553],[-89.536,36.555],[-89.52,36.555],[-89.497,36.529],[-89.485,36.498],[-89.471,36.489],[-89.452,36.498],[-89.397,36.588],[-89.351,36.611],[-89.331,36.616],[-89.28,36.6],[-89.256,36.594],[-89.203,36.626],[-89.156,36.716],[-89.13,36.811],[-89.122,36.912],[-89.154,36.992],[-89.225,37.053],[-89.272,37.08],[-89.281,37.078],[-89.292,37.071],[-89.296,37.052],[-89.293,37.038],[-89.286,37.023],[-89.29,37.013],[-89.301,37.012],[-89.352,37.036],[-89.414,37.102],[-89.487,37.213],[-89.503,37.301],[-89.462,37.366],[-89.462,37.434],[-89.503,37.506],[-89.523,37.576],[-89.523,37.645],[-89.623,37.747],[-89.823,37.884],[-89.97,37.969],[-90.064,38.001],[-90.174,38.069],[-90.299,38.174],[-90.366,38.254],[-90.374,38.31],[-90.317,38.458],[-90.151,38.781],[-90.132,38.819],[-90.127,38.833],[-90.134,38.847],[-90.15,38.86],[-90.22,38.898],[-90.354,38.93],[-90.478,38.948],[-90.577,38.91],[-90.664,38.987],[-90.737,39.182],[-90.919,39.387],[-91.21,39.603],[-91.379,39.749],[-91.426,39.827],[-91.467,39.943],[-91.502,40.098],[-91.5,40.226],[-91.442,40.379],[-91.391,40.397],[-91.381,40.448],[-91.394,40.537],[-91.339,40.604],[-91.215,40.65],[-91.102,40.75],[-91,40.905],[-90.954,41.016],[-90.964,41.083],[-91.001,41.146],[-91.067,41.206],[-91.082,41.28],[-91.048,41.369],[-90.939,41.426],[-90.754,41.45],[-90.587,41.495],[-90.437,41.56],[-90.348,41.632],[-90.319,41.71],[-90.276,41.77],[-90.218,41.813],[-90.177,41.884],[-90.152,41.982],[-90.149,42.054],[-90.168,42.1],[-90.233,42.154],[-90.347,42.215],[-90.41,42.272],[-90.425,42.326],[-90.485,42.383],[-90.59,42.445],[-90.657,42.521],[-90.688,42.61],[-90.789,42.677],[-90.96,42.72],[-91.07,42.789],[-91.118,42.882],[-91.148,42.986],[-91.161,43.102],[-91.148,43.2],[-91.107,43.278],[-91.117,43.331],[-91.178,43.359],[-91.219,43.395],[-91.238,43.44],[-91.278,43.797],[-91.32,43.936],[-91.383,43.991],[-91.515,44.054],[-91.716,44.126],[-91.841,44.194],[-91.912,44.289],[-92.055,44.4],[-92.149,44.445],[-92.24,44.462],[-92.313,44.498],[-92.367,44.552],[-92.442,44.587],[-92.537,44.601],[-92.644,44.645],[-92.82,44.758],[-92.963,44.79],[-93.03,44.838],[-93.07,44.912],[-93.119,44.937],[-93.175,44.913],[-93.232,44.963],[-93.291,45.087],[-93.349,45.167],[-93.408,45.202],[-93.936,45.389],[-94.063,45.439],[-94.133,45.496],[-94.189,45.577],[-94.212,45.632],[-94.202,45.662],[-94.238,45.714],[-94.32,45.789],[-94.371,45.853],[-94.389,45.906],[-94.386,45.972],[-94.363,46.051],[-94.366,46.125],[-94.394,46.194],[-94.333,46.284],[-94.183,46.396],[-94.091,46.482],[-94.057,46.543],[-93.959,46.569],[-93.798,46.559],[-93.692,46.586],[-93.641,46.651],[-93.572,46.698],[-93.486,46.725],[-93.404,46.807],[-93.325,46.944],[-93.309,47.023],[-93.357,47.044],[-93.402,47.09],[-93.445,47.16],[-93.509,47.211],[-93.593,47.243],[-93.676,47.249],[-93.759,47.228],[-93.798,47.242],[-93.795,47.29],[-93.829,47.312],[-93.901,47.306],[-93.976,47.336],[-94.094,47.433]],[[-95.026,47.156],[-94.968,47.318],[-94.877,47.451],[-94.794,47.482],[-94.637,47.44]],[[-94.508,47.457],[-94.326,47.406]]]}},{"type":"Feature","properties":{"nombre":"Negro"},"geometry":{"type":"MultiLineString","coordinates":[[[-68.014,-38.975],[-67.757,-39.052],[-67.598,-39.074],[-67.453,-39.069],[-67.314,-39.085],[-67.18,-39.123],[-66.987,-39.129],[-66.735,-39.104],[-66.531,-39.1],[-66.373,-39.117],[-66.224,-39.154],[-66.084,-39.212],[-65.931,-39.248],[-65.765,-39.261],[-65.629,-39.331],[-65.521,-39.457],[-65.434,-39.593],[-65.366,-39.74],[-65.234,-39.83],[-65.037,-39.862],[-64.899,-39.91],[-64.82,-39.975],[-64.728,-40.025],[-64.622,-40.062],[-64.503,-40.078],[-64.371,-40.074],[-64.172,-40.166],[-63.905,-40.354],[-63.738,-40.455],[-63.67,-40.469],[-63.574,-40.534],[-63.388,-40.709],[-63.174,-40.743],[-63.028,-40.826],[-62.86,-40.948],[-62.798,-41.047]],[[-70.336,2.058],[-69.967,2.11],[-69.683,2.159],[-69.526,2.204],[-69.401,2.262],[-69.252,2.271],[-69.079,2.23],[-68.932,2.211],[-68.81,2.215],[-68.701,2.264],[-68.603,2.36],[-68.497,2.379],[-68.385,2.321],[-68.277,2.372],[-68.175,2.534],[-68.113,2.606],[-68.093,2.588],[-68.068,2.608],[-68.038,2.665],[-67.955,2.73],[-67.859,2.794],[-67.766,2.833],[-67.667,2.8],[-67.619,2.794],[-67.597,2.769],[-67.568,2.69],[-67.535,2.677],[-67.486,2.644],[-67.392,2.56],[-67.312,2.472],[-67.253,2.429],[-67.211,2.39],[-67.198,2.333],[-67.215,2.275],[-67.165,2.143],[-67.131,2.101],[-67.114,2.051],[-67.131,2],[-67.09,1.94],[-66.988,1.68],[-66.982,1.601],[-66.958,1.564],[-66.931,1.458],[-66.884,1.358],[-66.896,1.29],[-66.876,1.223],[-66.86,1.022],[-66.877,0.938],[-66.921,0.903],[-67.008,0.887],[-67.137,0.889],[-67.231,0.768],[-67.32,0.403],[-67.277,0.156],[-67.201,0.008],[-67.077,-0.122],[-66.984,-0.18],[-66.922,-0.164],[-66.772,-0.216],[-66.535,-0.335],[-66.373,-0.377],[-66.285,-0.343],[-66.172,-0.324],[-66.034,-0.322],[-65.942,-0.303],[-65.896,-0.268],[-65.84,-0.264],[-65.772,-0.291],[-65.681,-0.301],[-65.566,-0.292],[-65.447,-0.316],[-65.261,-0.401],[-65.005,-0.457],[-64.798,-0.449],[-64.43,-0.367],[-64.152,-0.314],[-63.972,-0.304],[-63.796,-0.32],[-63.633,-0.382],[-63.481,-0.492],[-63.31,-0.585],[-63.025,-0.702],[-62.879,-0.874],[-62.73,-0.985],[-62.432,-1.146],[-61.933,-1.377],[-61.881,-1.389],[-61.799,-1.389],[-61.717,-1.401],[-61.62,-1.449],[-61.538,-1.53],[-61.471,-1.642],[-61.437,-1.736],[-61.435,-1.814],[-61.355,-1.926],[-61.197,-2.074],[-61.142,-2.15],[-61.092,-2.218],[-61.04,-2.36],[-60.903,-2.553],[-60.571,-2.922],[-60.451,-3.028],[-60.36,-3.065],[-60.26,-3.069],[-60.158,-3.096],[-60.052,-3.145],[-59.976,-3.158],[-59.897,-3.128]]]}},{"type":"Feature","properties":{"nombre":"Neuquén"},"geometry":{"type":"MultiLineString","coordinates":[[[-70.803,-36.529],[-70.7,-36.909],[-70.648,-37.077],[-70.648,-37.149],[-70.681,-37.182],[-70.698,-37.227],[-70.699,-37.282],[-70.675,-37.325],[-70.626,-37.355],[-70.51,-37.375],[-70.325,-37.387],[-70.199,-37.42],[-70.13,-37.474],[-70.077,-37.539],[-70.04,-37.615],[-69.991,-37.658],[-69.931,-37.67],[-69.886,-37.767],[-69.857,-37.947],[-69.809,-38.078],[-69.74,-38.159],[-69.7,-38.245],[-69.687,-38.337],[-69.604,-38.435],[-69.452,-38.538],[-69.325,-38.592],[-69.224,-38.597],[-69.102,-38.543],[-68.961,-38.43],[-68.849,-38.371],[-68.769,-38.366],[-68.603,-38.447],[-68.351,-38.614],[-68.173,-38.766],[-68.014,-38.975]]]}},{"type":"Feature","properties":{"nombre":"Orinoco"},"geometry":{"type":"MultiLineString","coordinates":[[[-63.436,2.374],[-63.641,2.312],[-63.732,2.258],[-63.779,2.191],[-63.849,2.156],[-63.991,2.153],[-64.279,2.265],[-64.408,2.292],[-64.475,2.271],[-64.68,2.326],[-65.022,2.456],[-65.196,2.587],[-65.202,2.718],[-65.246,2.818],[-65.328,2.886],[-65.393,2.966],[-65.442,3.059],[-65.49,3.117],[-65.537,3.142],[-65.613,3.152],[-65.772,3.142],[-65.942,3.162],[-66.011,3.13],[-66.036,3.052],[-66.129,3.024],[-66.29,3.045],[-66.413,3.091],[-66.5,3.161],[-66.556,3.237],[-66.581,3.318],[-66.645,3.42],[-66.801,3.606],[-66.946,3.706],[-67.002,3.792],[-67.015,3.896],[-67.116,3.948],[-67.302,3.946],[-67.48,3.981],[-67.732,4.087],[-67.783,4.198],[-67.799,4.284],[-67.795,4.381],[-67.814,4.455],[-67.855,4.507],[-67.855,4.665],[-67.814,4.931],[-67.804,5.133],[-67.825,5.27],[-67.788,5.375],[-67.695,5.448],[-67.642,5.559],[-67.631,5.709],[-67.575,5.833],[-67.474,5.93],[-67.439,6.026],[-67.472,6.12],[-67.423,6.202],[-67.4,6.24],[-67.225,6.386],[-67.119,6.557],[-67.062,6.851],[-67.071,7.033],[-66.959,7.151],[-66.73,7.266],[-66.563,7.396],[-66.461,7.542],[-66.297,7.629],[-66.072,7.657],[-65.912,7.714],[-65.769,7.841],[-65.641,7.892],[-65.518,7.901],[-65.358,7.883],[-65.221,7.857],[-65.105,7.823],[-65.004,7.771],[-64.928,7.71],[-64.904,7.681],[-64.887,7.668],[-64.873,7.666],[-64.854,7.668],[-64.838,7.67],[-64.787,7.685],[-64.742,7.709],[-64.59,7.76],[-64.51,7.824],[-64.538,7.892],[-64.545,7.943],[-64.531,7.978],[-64.481,7.999],[-64.395,8.006],[-64.331,8.028],[-64.288,8.065],[-64.222,8.057],[-64.155,8.005],[-64.114,7.981],[-64.089,7.975],[-64.05,7.971],[-63.993,7.974],[-63.924,8.013],[-63.849,8.092],[-63.727,8.136],[-63.558,8.145],[-63.399,8.191],[-63.249,8.273],[-63.101,8.304],[-62.953,8.284],[-62.791,8.334],[-62.615,8.454],[-62.429,8.553],[-62.235,8.633],[-62.152,8.642]],[[-62.152,8.642],[-62.092,8.648],[-62.002,8.6],[-61.88,8.582],[-61.65,8.603],[-61.619,8.597],[-61.395,8.774],[-61.099,8.941]],[[-62.063,9.036],[-62.077,8.975],[-62.065,8.928],[-62.025,8.896],[-62.039,8.828],[-62.137,8.673],[-62.152,8.642]],[[-61.736,9.631],[-61.743,9.603],[-61.849,9.289],[-61.924,9.152],[-62.044,9.055],[-62.063,9.036]],[[-62.3,9.788],[-62.309,9.748],[-62.326,9.721],[-62.414,9.562],[-62.388,9.421],[-62.277,9.245],[-62.18,9.134],[-62.098,9.089],[-62.063,9.036]]]}},{"type":"Feature","properties":{"nombre":"Panama Canal"},"geometry":{"type":"MultiLineString","coordinates":[[[-79.691,9.104],[-79.566,8.968],[-79.552,8.924]],[[-79.923,9.267],[-79.927,9.304],[-79.915,9.361]]]}},{"type":"Feature","properties":{"nombre":"Paraiba"},"geometry":{"type":"MultiLineString","coordinates":[[[-45.049,-23.049],[-45.505,-23.309],[-45.606,-23.351],[-45.709,-23.361],[-45.85,-23.354],[-45.934,-23.365],[-45.961,-23.393],[-45.99,-23.396],[-46.021,-23.375],[-46.004,-23.309],[-45.941,-23.197],[-45.861,-23.127],[-45.765,-23.096],[-45.666,-23.038],[-45.565,-22.952],[-45.446,-22.893],[-45.31,-22.86],[-45.167,-22.773],[-45.016,-22.631],[-44.863,-22.547],[-44.706,-22.521],[-44.651,-22.524],[-44.593,-22.538],[-44.522,-22.517],[-44.362,-22.435],[-44.256,-22.426],[-44.205,-22.49],[-44.151,-22.508],[-44.094,-22.48],[-44.04,-22.477],[-43.989,-22.498],[-43.852,-22.438],[-43.629,-22.299],[-43.425,-22.196],[-43.144,-22.097]],[[-43.138,-22.097],[-42.28,-21.714],[-41.991,-21.6],[-41.855,-21.582],[-41.775,-21.619],[-41.684,-21.631],[-41.581,-21.618],[-41.467,-21.646],[-41.341,-21.714],[-41.213,-21.714],[-41.022,-21.611]]]}},{"type":"Feature","properties":{"nombre":"Paranaíba"},"geometry":{"type":"MultiLineString","coordinates":[[[-46.314,-19.171],[-46.561,-18.852],[-46.517,-18.793],[-46.514,-18.765],[-46.538,-18.748],[-46.54,-18.71],[-46.519,-18.652],[-46.535,-18.564],[-46.586,-18.448],[-46.697,-18.355],[-46.867,-18.284],[-46.992,-18.258],[-47.071,-18.277],[-47.152,-18.228],[-47.235,-18.112],[-47.319,-18.083],[-47.447,-18.171]],[[-48.018,-18.434],[-48.227,-18.34]],[[-49.108,-18.388],[-49.179,-18.405],[-49.247,-18.468],[-49.337,-18.585],[-49.417,-18.603],[-49.488,-18.522],[-49.553,-18.51],[-49.612,-18.567],[-49.678,-18.6],[-49.789,-18.615]]]}},{"type":"Feature","properties":{"nombre":"Paraná"},"geometry":{"type":"MultiLineString","coordinates":[[[-59.182,-33.806],[-59.082,-33.822],[-58.934,-33.884],[-58.737,-33.994],[-58.591,-34.038],[-58.429,-33.991]],[[-60.39,-33.173],[-60.282,-33.259],[-59.854,-33.534],[-59.548,-33.684],[-59.362,-33.709],[-59.287,-33.742],[-59.241,-33.779],[-59.182,-33.806]],[[-60.39,-33.173],[-60.111,-33.249],[-59.947,-33.268],[-59.823,-33.25],[-59.664,-33.315],[-59.472,-33.463],[-59.328,-33.604],[-59.182,-33.806]],[[-60.391,-33.173],[-60.39,-33.173]],[[-58.605,-27.314],[-58.816,-27.438],[-58.878,-27.512],[-58.85,-27.611],[-58.824,-27.718],[-58.831,-27.826],[-58.862,-27.971],[-58.93,-28.076],[-59.035,-28.142],[-59.087,-28.288],[-59.087,-28.514],[-59.122,-28.735],[-59.192,-28.948],[-59.194,-28.981],[-59.205,-29.032],[-59.227,-29.058],[-59.256,-29.083],[-59.304,-29.104],[-59.44,-29.17],[-59.529,-29.25],[-59.565,-29.335],[-59.605,-29.495],[-59.65,-29.73],[-59.654,-29.898],[-59.615,-29.999],[-59.614,-30.11],[-59.651,-30.233],[-59.656,-30.336],[-59.629,-30.421],[-59.625,-30.526],[-59.637,-30.604],[-59.638,-30.669],[-59.654,-30.717],[-59.675,-30.76],[-59.738,-30.83],[-60.064,-31.27],[-60.302,-31.554],[-60.448,-31.666],[-60.581,-31.699],[-60.666,-31.768],[-60.702,-31.871],[-60.706,-31.959],[-60.676,-32.033],[-60.678,-32.136],[-60.726,-32.335],[-60.757,-32.517],[-60.744,-32.645],[-60.698,-32.78],[-60.631,-32.916],[-60.541,-33.053],[-60.39,-33.173],[-60.39,-33.173]],[[-54.611,-25.433],[-54.632,-26.006],[-54.678,-26.309],[-54.755,-26.533],[-54.826,-26.652],[-54.889,-26.667],[-54.934,-26.703],[-54.962,-26.759],[-55.014,-26.807],[-55.089,-26.845],[-55.13,-26.886],[-55.136,-26.931],[-55.208,-26.96],[-55.346,-26.973],[-55.427,-27.009],[-55.451,-27.068],[-55.497,-27.115],[-55.565,-27.15],[-55.597,-27.208],[-55.594,-27.288],[-55.633,-27.357],[-55.715,-27.415],[-55.79,-27.416],[-55.859,-27.362],[-55.951,-27.326],[-56.067,-27.308],[-56.164,-27.321],[-56.242,-27.367],[-56.311,-27.439],[-56.37,-27.537],[-56.437,-27.554],[-56.511,-27.488],[-56.603,-27.468],[-56.716,-27.494],[-56.805,-27.485],[-56.872,-27.441],[-56.974,-27.436],[-57.112,-27.47],[-57.391,-27.43],[-57.812,-27.317],[-58.168,-27.273],[-58.605,-27.314]],[[-53.786,-23.333],[-53.908,-23.407],[-53.996,-23.57],[-54.05,-23.823],[-54.125,-23.978],[-54.267,-24.066],[-54.067,-24.004],[-53.99,-23.838],[-53.916,-23.577],[-53.858,-23.423],[-53.786,-23.333]],[[-52.961,-22.455],[-53.116,-22.64],[-53.272,-22.752],[-53.481,-22.852],[-53.62,-23.001],[-53.69,-23.198],[-53.786,-23.333]],[[-51.397,-20.441],[-51.534,-20.558],[-51.593,-20.666],[-51.619,-20.807],[-51.692,-20.944],[-51.811,-21.077],[-51.866,-21.183],[-51.857,-21.26],[-51.873,-21.33],[-51.936,-21.423]],[[-50.49,-19.02],[-50.532,-19.087],[-50.578,-19.112],[-50.642,-19.118],[-50.713,-19.161],[-50.792,-19.238],[-50.844,-19.311],[-50.869,-19.377],[-50.871,-19.424],[-50.864,-19.438],[-50.881,-19.459],[-50.924,-19.464],[-50.964,-19.511],[-50.997,-19.668]],[[-55.075,-14.319],[-55.432,-14.357],[-55.8,-14.549],[-56.006,-14.635],[-56.173,-14.68],[-56.316,-14.778],[-56.436,-14.928],[-56.497,-15.037],[-56.497,-15.104],[-56.444,-15.171],[-56.337,-15.239],[-56.275,-15.328],[-56.258,-15.437],[-56.205,-15.531],[-56.117,-15.609],[-56.089,-15.68],[-56.121,-15.746],[-56.133,-15.801],[-56.122,-15.845],[-56.07,-15.896],[-55.977,-15.952],[-55.917,-16.009],[-55.89,-16.069],[-55.905,-16.13],[-55.963,-16.195],[-55.977,-16.254],[-55.947,-16.309],[-55.965,-16.362],[-56.031,-16.413],[-56.134,-16.453],[-56.273,-16.483],[-56.382,-16.565],[-56.461,-16.699],[-56.529,-16.785],[-56.586,-16.822],[-56.62,-16.872],[-56.633,-16.936],[-56.627,-16.993],[-56.59,-17.067],[-56.79,-17.386],[-56.888,-17.518],[-56.98,-17.595],[-57.08,-17.734],[-57.198,-17.812],[-57.37,-17.876],[-57.432,-18.045],[-57.386,-18.321],[-57.407,-18.497],[-57.496,-18.573],[-57.549,-18.664],[-57.567,-18.769],[-57.607,-18.838],[-57.668,-18.873],[-57.688,-18.919],[-57.668,-18.978],[-57.588,-19.019],[-57.448,-19.042],[-57.365,-19.07],[-57.342,-19.103],[-57.304,-19.233],[-57.3,-19.297],[-57.309,-19.351],[-57.345,-19.414],[-57.408,-19.485],[-57.427,-19.529],[-57.403,-19.546],[-57.413,-19.587],[-57.458,-19.652],[-57.522,-19.697],[-57.606,-19.721],[-57.649,-19.752],[-57.649,-19.789],[-57.711,-19.861],[-57.835,-19.97],[-57.962,-20.059],[-58.094,-20.13],[-58.149,-20.177],[-58.129,-20.202],[-58.129,-20.226],[-58.148,-20.25],[-58.115,-20.304],[-58.032,-20.39],[-57.988,-20.498],[-57.984,-20.628],[-57.966,-20.687],[-57.934,-20.675],[-57.904,-20.685],[-57.875,-20.715],[-57.881,-20.746],[-57.921,-20.778],[-57.921,-20.803],[-57.881,-20.822],[-57.874,-20.85],[-57.902,-20.887],[-57.891,-20.918],[-57.843,-20.942],[-57.822,-21.009],[-57.831,-21.119],[-57.852,-21.199],[-57.887,-21.25],[-57.893,-21.289],[-57.868,-21.317],[-57.88,-21.375],[-57.927,-21.464],[-57.937,-21.553],[-57.91,-21.643],[-57.918,-21.789],[-57.981,-22.09],[-57.97,-22.215],[-57.931,-22.29],[-57.862,-22.356],[-57.814,-22.455],[-57.788,-22.589],[-57.817,-22.671],[-57.899,-22.701],[-57.903,-22.751],[-57.829,-22.822],[-57.792,-22.898],[-57.79,-22.98],[-57.713,-23.084],[-57.561,-23.21],[-57.476,-23.348],[-57.459,-23.499],[-57.407,-23.613],[-57.32,-23.692],[-57.293,-23.779],[-57.327,-23.875],[-57.299,-23.972],[-57.208,-24.069],[-57.172,-24.132],[-57.19,-24.162],[-57.17,-24.223],[-57.112,-24.318],[-57.08,-24.403],[-57.073,-24.478],[-57.084,-24.547],[-57.13,-24.64],[-57.124,-24.724],[-57.154,-24.787],[-57.217,-24.857],[-57.237,-24.915],[-57.212,-24.961],[-57.221,-24.984],[-57.264,-24.983],[-57.32,-25.015],[-57.388,-25.08],[-57.448,-25.112],[-57.499,-25.11],[-57.561,-25.154],[-57.635,-25.245],[-57.644,-25.328],[-57.587,-25.405],[-57.563,-25.474],[-57.572,-25.534],[-57.626,-25.599],[-57.725,-25.667],[-57.755,-25.697],[-57.757,-25.726],[-57.782,-25.784],[-57.865,-25.907],[-57.886,-25.964],[-57.891,-26.007],[-57.943,-26.053],[-58.082,-26.139],[-58.111,-26.18],[-58.118,-26.225],[-58.136,-26.251],[-58.155,-26.263],[-58.181,-26.307],[-58.203,-26.381],[-58.205,-26.477],[-58.188,-26.593],[-58.191,-26.63],[-58.222,-26.65],[-58.239,-26.677],[-58.246,-26.731],[-58.272,-26.771],[-58.318,-26.796],[-58.335,-26.825],[-58.323,-26.858],[-58.356,-26.89],[-58.436,-26.922],[-58.485,-26.968],[-58.503,-27.03],[-58.548,-27.084],[-58.619,-27.132],[-58.642,-27.196],[-58.605,-27.314]]]}},{"type":"Feature","properties":{"nombre":"Pilcomayo"},"geometry":{"type":"MultiLineString","coordinates":[[[-66.444,-19.37],[-66.387,-19.308],[-66.373,-19.268],[-66.384,-19.23],[-66.359,-19.196],[-66.297,-19.165],[-66.207,-19.206],[-66.089,-19.318],[-65.98,-19.366],[-65.827,-19.342],[-65.778,-19.25],[-65.702,-19.186],[-65.582,-19.12],[-65.465,-19.143],[-65.35,-19.254],[-65.252,-19.328],[-65.171,-19.362],[-65.078,-19.377],[-64.973,-19.373],[-64.84,-19.545],[-64.679,-19.894],[-64.59,-20.157],[-64.572,-20.336],[-64.499,-20.441],[-64.371,-20.472],[-64.274,-20.586],[-64.209,-20.785],[-64.132,-20.899],[-64.044,-20.929],[-63.975,-21.002],[-63.922,-21.117],[-63.843,-21.176],[-63.736,-21.178],[-63.552,-21.242],[-63.293,-21.367],[-63.122,-21.466],[-63.041,-21.539],[-62.977,-21.633],[-62.908,-21.806],[-62.815,-22.05],[-62.745,-22.16],[-62.665,-22.218],[-62.626,-22.262],[-62.626,-22.29],[-62.542,-22.35],[-62.372,-22.439],[-62.214,-22.612],[-62.067,-22.869],[-61.928,-23.059],[-61.799,-23.182],[-61.68,-23.269],[-61.571,-23.319],[-61.513,-23.36],[-61.506,-23.392],[-61.404,-23.457],[-61.208,-23.557],[-61.085,-23.656],[-61.033,-23.756],[-60.84,-23.858],[-60.505,-23.964],[-60.262,-24.014],[-60.11,-24.009],[-59.892,-24.094],[-59.609,-24.267],[-59.435,-24.387],[-59.373,-24.454],[-59.187,-24.562],[-58.724,-24.787],[-58.52,-24.843],[-58.423,-24.894],[-58.365,-24.959],[-58.309,-24.979],[-58.253,-24.954],[-58.136,-24.977],[-57.96,-25.049],[-57.822,-25.136],[-57.644,-25.328]]]}},{"type":"Feature","properties":{"nombre":"Purús"},"geometry":{"type":"MultiLineString","coordinates":[[[-72.426,-10.845],[-72.349,-10.907],[-72.221,-10.901],[-71.912,-10.824],[-71.801,-10.718],[-71.689,-10.662],[-71.539,-10.621],[-71.38,-10.543],[-71.214,-10.429],[-71.136,-10.356],[-71.147,-10.323],[-71.126,-10.292],[-71.074,-10.263],[-71.037,-10.18],[-71.013,-10.043],[-70.929,-9.912],[-70.786,-9.788],[-70.708,-9.696],[-70.696,-9.635],[-70.659,-9.595],[-70.596,-9.575],[-70.55,-9.514],[-70.52,-9.412],[-70.455,-9.33],[-70.353,-9.266],[-70.298,-9.211],[-70.291,-9.166],[-70.225,-9.123],[-70.1,-9.083],[-69.994,-9.077],[-69.907,-9.104],[-69.847,-9.1],[-69.815,-9.065],[-69.764,-9.047],[-69.658,-9.046],[-69.616,-9.059],[-69.593,-9.045],[-69.57,-9.013],[-69.541,-9],[-69.492,-9.004],[-69.419,-8.964],[-69.323,-8.874],[-69.188,-8.798],[-69.014,-8.738],[-68.923,-8.731],[-68.889,-8.748],[-68.867,-8.77],[-68.823,-8.782],[-68.772,-8.771],[-68.711,-8.795],[-68.634,-8.883],[-68.593,-8.953],[-68.588,-9.006],[-68.563,-9.028],[-68.518,-9.018],[-68.488,-9.029],[-68.472,-9.06],[-68.407,-9.065],[-68.292,-9.046],[-68.218,-9.046],[-68.183,-9.066],[-68.105,-9.044],[-67.924,-8.947],[-67.518,-8.777],[-67.378,-8.682],[-67.368,-8.603],[-67.379,-8.574],[-67.398,-8.561],[-67.405,-8.535],[-67.393,-8.487],[-67.4,-8.459],[-67.412,-8.443],[-67.41,-8.425],[-67.355,-8.38],[-67.347,-8.343],[-67.364,-8.316],[-67.358,-8.295],[-67.342,-8.254],[-67.264,-8.149],[-67.233,-8.069],[-67.249,-8.014],[-67.201,-7.939],[-67.09,-7.843],[-67.048,-7.798],[-67.045,-7.775],[-67.025,-7.76],[-66.999,-7.76],[-66.978,-7.742],[-66.968,-7.701],[-66.923,-7.672],[-66.843,-7.653],[-66.789,-7.658],[-66.761,-7.685],[-66.719,-7.673],[-66.662,-7.621],[-66.605,-7.606],[-66.547,-7.626],[-66.511,-7.617],[-66.499,-7.577],[-66.453,-7.541],[-66.374,-7.509],[-66.335,-7.523],[-66.329,-7.562],[-66.298,-7.578],[-66.24,-7.567],[-66.195,-7.587],[-66.165,-7.638],[-66.122,-7.658],[-66.069,-7.657],[-66.044,-7.684],[-66.019,-7.696],[-65.957,-7.675],[-65.911,-7.68],[-65.886,-7.702],[-65.856,-7.701],[-65.835,-7.683],[-65.789,-7.684],[-65.741,-7.698],[-65.673,-7.691],[-65.648,-7.662],[-65.62,-7.646],[-65.578,-7.647],[-65.543,-7.632],[-65.522,-7.599],[-65.487,-7.592],[-65.45,-7.596],[-65.429,-7.582],[-65.431,-7.561],[-65.41,-7.549],[-65.385,-7.552],[-65.373,-7.535],[-65.38,-7.514],[-65.367,-7.493],[-65.302,-7.45],[-65.23,-7.411],[-65.193,-7.408],[-65.167,-7.426],[-65.152,-7.4],[-65.147,-7.327],[-65.121,-7.311],[-65.098,-7.307],[-65.035,-7.325],[-64.99,-7.312],[-64.975,-7.268],[-64.957,-7.257],[-64.933,-7.25],[-64.871,-7.276],[-64.79,-7.252],[-64.69,-7.178],[-64.645,-7.131],[-64.656,-7.11],[-64.646,-7.096],[-64.616,-7.087],[-64.612,-7.075],[-64.609,-7.063],[-64.584,-7.049],[-64.585,-7.02],[-64.636,-6.929],[-64.635,-6.872],[-64.58,-6.848],[-64.565,-6.825],[-64.589,-6.803],[-64.595,-6.77],[-64.586,-6.725],[-64.552,-6.702],[-64.495,-6.7],[-64.462,-6.679],[-64.454,-6.638],[-64.415,-6.6],[-64.345,-6.567],[-64.298,-6.474],[-64.261,-6.246],[-64.304,-6.025],[-64.357,-5.934],[-64.433,-5.901],[-64.454,-5.867],[-64.418,-5.833],[-64.397,-5.787],[-64.392,-5.728],[-64.368,-5.695],[-64.326,-5.689],[-64.311,-5.665],[-64.323,-5.622],[-64.292,-5.598],[-64.218,-5.592],[-64.181,-5.603],[-64.182,-5.631],[-64.163,-5.647],[-64.124,-5.652],[-64.095,-5.638],[-64.075,-5.605],[-64.019,-5.589],[-63.927,-5.59],[-63.857,-5.624],[-63.811,-5.69],[-63.744,-5.716],[-63.657,-5.702],[-63.63,-5.721],[-63.635,-5.757],[-63.624,-5.788],[-63.59,-5.811],[-63.542,-5.8],[-63.48,-5.755],[-63.427,-5.742],[-63.383,-5.762],[-63.304,-5.733],[-63.191,-5.655],[-63.158,-5.662],[-63.144,-5.683],[-63.122,-5.716],[-63.072,-5.728],[-63.052,-5.707],[-63.063,-5.622],[-63.047,-5.573],[-63.002,-5.56],[-62.995,-5.531],[-62.98,-5.473],[-62.957,-5.46],[-62.936,-5.437],[-62.901,-5.437],[-62.856,-5.43],[-62.83,-5.392],[-62.829,-5.276],[-62.839,-5.208],[-62.861,-5.187],[-62.843,-5.153],[-62.785,-5.106],[-62.763,-5.061],[-62.778,-5.02],[-62.748,-4.968],[-62.7,-4.944],[-62.658,-4.951],[-62.617,-4.937],[-62.601,-4.913],[-62.589,-4.875],[-62.551,-4.857],[-62.51,-4.862],[-62.473,-4.837],[-62.462,-4.808],[-62.476,-4.776],[-62.453,-4.744],[-62.393,-4.713],[-62.313,-4.704],[-62.214,-4.716],[-62.115,-4.664],[-62.079,-4.631],[-62.033,-4.59],[-62.016,-4.538],[-62.04,-4.487],[-62.023,-4.444],[-61.992,-4.429],[-61.921,-4.415],[-61.875,-4.38],[-61.854,-4.324],[-61.79,-4.28],[-61.681,-4.248],[-61.564,-4.146],[-61.441,-3.973],[-61.406,-3.832],[-61.468,-3.676]]]}},{"type":"Feature","properties":{"nombre":"Pánuco"},"geometry":{"type":"MultiLineString","coordinates":[[[-98.59,21.981],[-98.471,21.965],[-98.425,21.98],[-98.414,22.019],[-98.376,22.041],[-98.311,22.046],[-98.258,22.066],[-98.217,22.102],[-98.178,22.099],[-98.139,22.056],[-98.097,22.047],[-98.051,22.07],[-98.047,22.107],[-98.051,22.123],[-98.015,22.178],[-97.966,22.209],[-97.871,22.219],[-97.782,22.279]]]}},{"type":"Feature","properties":{"nombre":"Rio Grande"},"geometry":{"type":"MultiLineString","coordinates":[[[-99.172,26.564],[-99.108,26.447],[-99.015,26.399],[-98.873,26.381],[-98.765,26.34],[-98.691,26.276],[-98.598,26.238],[-98.486,26.225],[-98.378,26.182],[-98.275,26.111],[-98.083,26.064],[-97.801,26.042],[-97.587,25.984],[-97.44,25.891],[-97.376,25.872],[-97.358,25.871],[-97.35,25.885],[-97.339,25.911],[-97.282,25.942],[-97.146,25.961]],[[-101.039,29.46],[-101.016,29.401],[-100.924,29.315],[-100.755,29.183],[-100.659,29.069],[-100.636,28.973],[-100.55,28.821],[-100.399,28.614],[-100.332,28.503],[-100.348,28.486],[-100.336,28.428],[-100.296,28.328],[-100.221,28.243],[-100.112,28.173],[-100.001,28.048],[-99.89,27.867],[-99.754,27.73],[-99.595,27.636],[-99.505,27.548],[-99.484,27.467],[-99.486,27.398],[-99.51,27.34],[-99.5,27.286],[-99.455,27.234],[-99.44,27.17],[-99.458,27.082],[-99.457,27.057]],[[-106.566,31.82],[-106.436,31.764],[-106.347,31.679],[-106.256,31.545],[-106.148,31.451],[-106.024,31.398],[-105.813,31.241],[-105.514,30.981],[-105.276,30.807],[-105.098,30.721],[-104.979,30.646],[-104.918,30.583],[-104.836,30.448],[-104.681,30.134],[-104.681,29.991],[-104.622,29.854],[-104.504,29.678],[-104.401,29.574],[-104.312,29.542],[-104.216,29.48],[-104.111,29.386],[-103.99,29.323],[-103.853,29.291],[-103.664,29.207],[-103.423,29.071],[-103.258,29.001],[-103.168,28.998],[-103.09,29.042],[-103.023,29.132],[-102.957,29.19],[-102.892,29.216],[-102.866,29.258],[-102.878,29.315],[-102.834,29.444],[-102.734,29.644],[-102.615,29.752],[-102.476,29.769],[-102.386,29.807],[-102.343,29.865],[-102.269,29.871],[-102.163,29.825],[-101.991,29.796],[-101.752,29.782],[-101.612,29.787],[-101.569,29.809],[-101.546,29.808],[-101.545,29.784],[-101.509,29.773],[-101.44,29.777],[-101.38,29.743],[-101.304,29.634]],[[-107.293,32.91],[-107.24,32.743],[-107.172,32.674],[-107.07,32.649],[-106.975,32.584],[-106.889,32.479],[-106.846,32.399],[-106.847,32.346],[-106.777,32.195],[-106.566,31.82]],[[-107.181,33.173],[-107.28,33.116]],[[-107.427,37.776],[-107.067,37.744],[-106.924,37.809],[-106.814,37.792],[-106.688,37.716],[-106.542,37.678],[-106.374,37.678],[-106.196,37.647],[-106.007,37.584],[-105.879,37.525],[-105.811,37.469],[-105.763,37.406],[-105.735,37.335],[-105.732,37.24],[-105.752,37.119],[-105.743,36.98],[-105.703,36.823],[-105.695,36.651],[-105.719,36.464],[-105.761,36.339],[-105.85,36.244],[-106.006,36.133],[-106.073,36.048],[-106.101,35.951],[-106.166,35.855],[-106.268,35.76],[-106.343,35.648],[-106.392,35.519],[-106.487,35.376],[-106.628,35.218],[-106.692,35.089],[-106.682,34.989],[-106.716,34.781],[-106.796,34.465],[-106.85,34.295],[-106.878,34.269],[-106.886,34.147],[-106.874,33.928],[-106.928,33.749],[-107.048,33.61],[-107.123,33.494],[-107.17,33.356]]]}},{"type":"Feature","properties":{"nombre":"Río Grande de Santiago"},"geometry":{"type":"MultiLineString","coordinates":[[[-102.78,20.31],[-102.79,20.368],[-102.866,20.398],[-103.07,20.443],[-103.121,20.478],[-103.153,20.525],[-103.147,20.587],[-103.19,20.663],[-103.293,20.735],[-103.341,20.795],[-103.332,20.841],[-103.351,20.91],[-103.398,21.002],[-103.44,21.051],[-103.478,21.059],[-103.521,21.04],[-103.592,20.972]],[[-103.709,20.938],[-103.842,20.989],[-103.885,21.027],[-103.882,21.068],[-103.93,21.118],[-104.079,21.205]],[[-104.079,21.206],[-104.18,21.2],[-104.253,21.22],[-104.33,21.263],[-104.364,21.298],[-104.442,21.433],[-104.526,21.502],[-104.634,21.708],[-104.664,21.765],[-104.724,21.817],[-104.779,21.822],[-104.892,21.767],[-105,21.729],[-105.021,21.739],[-105.033,21.777]],[[-105.104,21.822],[-105.176,21.804],[-105.207,21.795],[-105.246,21.756],[-105.339,21.705],[-105.411,21.691],[-105.457,21.672]]]}},{"type":"Feature","properties":{"nombre":"Salado"},"geometry":{"type":"MultiLineString","coordinates":[[[-65.865,-24.208],[-65.82,-24.417],[-65.855,-24.53],[-65.831,-24.642],[-65.76,-24.791],[-65.649,-24.925],[-65.498,-25.046],[-65.424,-25.136],[-65.427,-25.194],[-65.382,-25.235],[-65.29,-25.258],[-65.205,-25.228],[-65.126,-25.144],[-65.049,-25.119],[-64.974,-25.151],[-64.923,-25.202],[-64.896,-25.271],[-64.83,-25.321],[-64.722,-25.351],[-64.601,-25.329],[-64.465,-25.257],[-64.368,-25.185],[-64.309,-25.114],[-64.253,-25.086],[-64.2,-25.102],[-64.117,-25.227],[-64.006,-25.463],[-63.951,-25.613],[-63.954,-25.677],[-63.897,-25.795],[-63.781,-25.966],[-63.738,-26.092],[-63.769,-26.172],[-63.754,-26.306],[-63.692,-26.493],[-63.676,-26.658],[-63.707,-26.801],[-63.712,-26.937],[-63.691,-27.066],[-63.646,-27.206],[-63.576,-27.356],[-63.546,-27.477],[-63.559,-27.617],[-63.572,-27.663],[-63.529,-27.772],[-63.435,-27.958],[-63.321,-28.103],[-63.188,-28.209],[-63.116,-28.296],[-63.105,-28.365],[-63.058,-28.417],[-62.976,-28.452],[-62.883,-28.521],[-62.78,-28.624],[-62.695,-28.779],[-62.627,-28.987],[-62.504,-29.155],[-62.326,-29.283],[-62.166,-29.358],[-62.023,-29.382],[-61.896,-29.363],[-61.785,-29.302],[-61.703,-29.299],[-61.649,-29.355],[-61.508,-29.422],[-61.281,-29.5],[-61.064,-29.597],[-60.859,-29.714],[-60.742,-29.799],[-60.714,-29.852],[-60.706,-29.96],[-60.717,-30.123],[-60.705,-30.223],[-60.67,-30.26],[-60.658,-30.345],[-60.669,-30.477],[-60.655,-30.576],[-60.618,-30.642],[-60.608,-30.695],[-60.625,-30.733],[-60.679,-30.764],[-60.771,-30.787],[-60.821,-30.831],[-60.835,-30.926],[-60.807,-31.07],[-60.828,-31.172],[-60.889,-31.28],[-60.889,-31.341],[-60.828,-31.357],[-60.787,-31.447],[-60.766,-31.61],[-60.777,-31.733],[-60.819,-31.816],[-60.811,-31.882],[-60.706,-31.959]]]}},{"type":"Feature","properties":{"nombre":"San Juan"},"geometry":{"type":"MultiLineString","coordinates":[[[-69.418,-31.283],[-69.397,-31.277],[-69.185,-31.269],[-69.078,-31.295],[-69.029,-31.353],[-69.004,-31.415],[-69.002,-31.481],[-68.944,-31.519],[-68.828,-31.529],[-68.693,-31.515],[-68.539,-31.477],[-68.451,-31.472],[-68.418,-31.512],[-68.367,-31.573],[-68.357,-31.654],[-68.37,-31.775],[-68.349,-31.883],[-68.294,-31.979],[-68.28,-32.044],[-68.27,-32.072],[-68.226,-32.084],[-68.089,-32.074],[-67.974,-32.112],[-67.879,-32.197],[-67.744,-32.25],[-67.567,-32.27],[-67.449,-32.308],[-67.362,-32.389]],[[-84.769,11.118],[-84.488,11.044],[-84.348,10.98],[-84.256,10.901],[-84.205,10.841],[-84.197,10.802],[-84.168,10.78],[-84.096,10.776],[-83.919,10.735],[-83.811,10.743],[-83.713,10.786],[-83.659,10.837],[-83.641,10.915]],[[-86.105,12.208],[-85.871,12.098]]]}},{"type":"Feature","properties":{"nombre":"Santa Cruz"},"geometry":{"type":"MultiLineString","coordinates":[[[-71.982,-50.224],[-71.362,-50.209],[-71.112,-50.215],[-71.024,-50.236],[-70.937,-50.232],[-70.852,-50.202],[-70.671,-50.204],[-70.395,-50.24],[-70.239,-50.24],[-70.204,-50.205],[-70.154,-50.188],[-70.06,-50.187],[-69.83,-50.187],[-69.722,-50.158],[-69.659,-50.101],[-69.516,-50.086],[-69.294,-50.115],[-69.141,-50.101],[-69.013,-50.017],[-68.98,-50.003]]]}},{"type":"Feature","properties":{"nombre":"Savannah"},"geometry":{"type":"MultiLineString","coordinates":[[[-82.208,33.664],[-82.006,33.523],[-81.936,33.447],[-81.933,33.39],[-81.909,33.349],[-81.864,33.325],[-81.821,33.274],[-81.78,33.195],[-81.699,33.127],[-81.578,33.069],[-81.49,32.936],[-81.434,32.728],[-81.377,32.607],[-81.29,32.557],[-81.171,32.38],[-81.133,32.275],[-81.135,32.182],[-81.075,32.11],[-80.872,32.03]],[[-82.819,34.366],[-82.589,34.017]]]}},{"type":"Feature","properties":{"nombre":"São  Francisco"},"geometry":{"type":"MultiLineString","coordinates":[[[-45.262,-18.204],[-45.242,-18.126],[-45.221,-18.103],[-45.19,-18.109],[-45.16,-18.036],[-45.13,-17.886],[-45.086,-17.797],[-45.028,-17.77],[-45.008,-17.717],[-45.027,-17.637],[-45.007,-17.514],[-44.95,-17.347],[-44.888,-17.219],[-44.823,-17.13],[-44.87,-16.94],[-45.028,-16.649],[-45.089,-16.483],[-45.052,-16.444],[-45.038,-16.316],[-45.049,-15.991],[-44.922,-15.959],[-44.861,-15.917],[-44.823,-15.854],[-44.744,-15.795],[-44.563,-15.711],[-44.271,-15.458],[-44.154,-15.311],[-44.116,-15.185],[-44.054,-15.057],[-43.971,-14.926],[-43.906,-14.752],[-43.861,-14.534],[-43.8,-14.37],[-43.724,-14.258],[-43.654,-14.062],[-43.591,-13.781],[-43.532,-13.613],[-43.479,-13.556],[-43.454,-13.408],[-43.457,-13.17],[-43.443,-13.008],[-43.411,-12.923],[-43.342,-12.82],[-43.238,-12.698],[-43.209,-12.559],[-43.256,-12.403],[-43.265,-12.291],[-43.235,-12.222],[-43.254,-12.13],[-43.323,-12.013],[-43.348,-11.931],[-43.329,-11.885],[-43.336,-11.805],[-43.37,-11.691],[-43.362,-11.614],[-43.314,-11.574],[-43.255,-11.451],[-43.15,-11.143]],[[-40.818,-9.438],[-40.671,-9.474],[-40.552,-9.457],[-40.413,-9.397],[-40.32,-9.293],[-40.273,-9.145],[-40.212,-9.102],[-40.148,-9.095],[-40.078,-9.088],[-40.005,-9.058],[-39.949,-9.022],[-39.909,-8.98],[-39.888,-8.924],[-39.885,-8.853],[-39.835,-8.809],[-39.738,-8.791],[-39.688,-8.749],[-39.683,-8.683],[-39.601,-8.62],[-39.442,-8.559],[-39.327,-8.566],[-39.257,-8.64],[-39.093,-8.718],[-38.835,-8.8],[-38.705,-8.88],[-38.668,-8.896],[-38.619,-8.896],[-38.584,-8.866],[-38.544,-8.831],[-38.505,-8.835],[-38.484,-8.878],[-38.482,-8.96],[-38.433,-9.004],[-38.336,-9.01],[-38.294,-9.043],[-38.308,-9.102],[-38.283,-9.204],[-38.221,-9.348],[-37.938,-9.538],[-37.183,-9.893],[-37.019,-9.957],[-36.956,-10.014],[-36.94,-10.084],[-36.88,-10.154],[-36.777,-10.224],[-36.699,-10.257],[-36.647,-10.255],[-36.607,-10.293],[-36.58,-10.371],[-36.538,-10.411],[-36.483,-10.411],[-36.443,-10.432],[-36.412,-10.49]]]}},{"type":"Feature","properties":{"nombre":"Tapajós"},"geometry":{"type":"MultiLineString","coordinates":[[[-58.659,-10.975],[-58.591,-10.664],[-58.513,-10.521],[-58.404,-10.442],[-58.316,-10.277],[-58.248,-10.024],[-58.228,-9.802],[-58.257,-9.609],[-58.352,-9.475],[-58.512,-9.4],[-58.609,-9.303],[-58.644,-9.182],[-58.64,-9.069],[-58.599,-8.963],[-58.515,-8.858],[-58.387,-8.754],[-58.358,-8.691],[-58.428,-8.668],[-58.427,-8.523],[-58.353,-8.256],[-58.329,-8.051],[-58.354,-7.906],[-58.33,-7.78],[-58.259,-7.673],[-58.224,-7.575],[-58.224,-7.485],[-58.202,-7.415],[-58.136,-7.34],[-58.146,-7.263],[-58.228,-7.142],[-58.386,-6.949],[-58.455,-6.794],[-58.437,-6.676],[-58.375,-6.57],[-58.269,-6.478],[-58.144,-6.413],[-58.002,-6.378],[-57.872,-6.318],[-57.754,-6.235],[-57.681,-6.127],[-57.652,-5.996],[-57.492,-5.82],[-57.2,-5.598],[-57.042,-5.435],[-57.019,-5.329],[-56.97,-5.247],[-56.894,-5.188],[-56.821,-5.059],[-56.75,-4.862],[-56.686,-4.745],[-56.63,-4.708],[-56.56,-4.7],[-56.475,-4.722],[-56.397,-4.695],[-56.326,-4.62],[-56.283,-4.533],[-56.268,-4.435],[-56.155,-4.333],[-56.008,-4.26],[-55.945,-4.229],[-55.786,-4.128],[-55.678,-4.03],[-55.567,-3.892],[-55.394,-3.627],[-55.233,-3.279],[-55.145,-2.982],[-55.077,-2.62],[-54.992,-2.423],[-54.89,-2.392],[-54.798,-2.385],[-54.639,-2.419]]]}},{"type":"Feature","properties":{"nombre":"Tocantins"},"geometry":{"type":"MultiLineString","coordinates":[[[-49.179,-15.926],[-49.258,-15.768],[-49.35,-15.725],[-49.437,-15.634],[-49.55,-15.479],[-49.592,-15.348],[-49.564,-15.242],[-49.514,-15.165],[-49.444,-15.118],[-49.356,-15.011],[-49.252,-14.845],[-49.155,-14.746],[-49.064,-14.715],[-49.009,-14.629],[-48.992,-14.486],[-48.994,-14.387],[-49.014,-14.33],[-49.008,-14.282],[-48.973,-14.243],[-48.796,-14.125],[-48.713,-14.111],[-48.653,-14.148],[-48.598,-14.154],[-48.546,-14.129],[-48.384,-13.996],[-48.342,-13.922],[-48.348,-13.855],[-48.325,-13.828],[-48.273,-13.84],[-48.216,-13.82],[-48.155,-13.767],[-48.116,-13.691],[-48.1,-13.591],[-48.123,-13.516],[-48.185,-13.467],[-48.198,-13.329],[-48.164,-13.103],[-48.181,-12.897],[-48.284,-12.619],[-48.238,-12.512],[-48.235,-12.466],[-48.259,-12.445],[-48.266,-12.413],[-48.256,-12.37],[-48.307,-12.309],[-48.42,-12.23],[-48.524,-12.029],[-48.646,-11.636],[-48.648,-11.536],[-48.598,-11.467],[-48.516,-11.384],[-48.489,-11.257],[-48.541,-11.11],[-48.526,-10.979],[-48.443,-10.863],[-48.417,-10.732],[-48.448,-10.586],[-48.454,-10.43],[-48.437,-10.262],[-48.405,-10.14],[-48.357,-10.065],[-48.345,-10.001],[-48.367,-9.951],[-48.365,-9.908],[-48.339,-9.874],[-48.346,-9.799],[-48.387,-9.685],[-48.398,-9.553],[-48.379,-9.402],[-48.307,-9.19],[-48.182,-8.917],[-48.127,-8.722],[-48.141,-8.607],[-48.134,-8.522],[-48.106,-8.467],[-48.113,-8.369],[-48.154,-8.229],[-48.162,-8.142],[-48.137,-8.108],[-48.087,-8.085],[-48.011,-8.072],[-47.963,-8.003],[-47.941,-7.877],[-47.862,-7.779],[-47.724,-7.709],[-47.647,-7.627],[-47.63,-7.532],[-47.589,-7.459],[-47.522,-7.407],[-47.495,-7.356],[-47.507,-7.306],[-47.546,-7.288],[-47.612,-7.302],[-47.669,-7.28],[-47.717,-7.222],[-47.716,-7.185],[-47.665,-7.167],[-47.606,-7.115],[-47.537,-7.027],[-47.47,-6.796],[-47.406,-6.421],[-47.397,-6.072],[-47.445,-5.75],[-47.486,-5.561],[-47.52,-5.506],[-47.612,-5.455],[-47.763,-5.407],[-47.854,-5.351],[-47.885,-5.286],[-47.953,-5.256],[-48.059,-5.263],[-48.169,-5.241],[-48.282,-5.189],[-48.378,-5.17],[-48.458,-5.181],[-48.524,-5.22],[-48.574,-5.288],[-48.631,-5.33],[-48.723,-5.355]],[[-49.687,-3.835],[-49.649,-3.361],[-49.66,-3.091],[-49.708,-2.867],[-49.717,-2.736],[-49.67,-2.676],[-49.635,-2.652]]]}},{"type":"Feature","properties":{"nombre":"Ucayali"},"geometry":{"type":"MultiLineString","coordinates":[[[-71.669,-15.336],[-71.658,-15.217],[-71.637,-15.173],[-71.604,-15.164],[-71.597,-15.115],[-71.617,-15.027],[-71.596,-14.936],[-71.501,-14.792],[-71.457,-14.693],[-71.457,-14.568],[-71.489,-14.384],[-71.519,-14.264],[-71.549,-14.207],[-71.6,-14.163],[-71.672,-14.13],[-71.738,-14.04],[-71.799,-13.892],[-71.914,-13.81],[-72.081,-13.793],[-72.232,-13.738],[-72.364,-13.644],[-72.549,-13.547],[-72.786,-13.446],[-72.952,-13.411],[-73.049,-13.442],[-73.128,-13.449],[-73.221,-13.422],[-73.478,-13.175],[-73.562,-13.061],[-73.558,-12.997],[-73.584,-12.897],[-73.64,-12.76],[-73.716,-12.645],[-73.811,-12.551],[-73.916,-12.392],[-74.031,-12.168],[-74.055,-12.007],[-73.989,-11.909],[-74.031,-11.718],[-74.183,-11.433],[-74.258,-11.256],[-74.257,-11.188],[-74.204,-11.154],[-74.101,-11.155],[-73.983,-11.188],[-73.851,-11.252],[-73.763,-11.28],[-73.719,-11.272],[-73.719,-11.195],[-73.763,-11.048],[-73.774,-10.912],[-73.753,-10.787],[-73.804,-10.684],[-73.927,-10.603],[-74.003,-10.509],[-74.03,-10.403],[-74.033,-10.31],[-74.013,-10.233],[-74.017,-10.205],[-74.038,-10.188],[-74.051,-10.173],[-74.041,-10.128],[-74.017,-10.098],[-74.004,-10.074],[-74.01,-10.059],[-74.029,-10.051],[-74.058,-10.015],[-74.071,-9.961],[-74.057,-9.933],[-74.015,-9.933],[-73.984,-9.908],[-73.963,-9.859],[-74.001,-9.833],[-74.098,-9.829],[-74.151,-9.767],[-74.16,-9.648],[-74.18,-9.559],[-74.212,-9.501],[-74.247,-9.487],[-74.268,-9.489],[-74.281,-9.475],[-74.291,-9.453],[-74.315,-9.415],[-74.379,-9.367],[-74.405,-9.293],[-74.392,-9.192],[-74.412,-9.139],[-74.447,-9.115],[-74.459,-9.089],[-74.454,-9.062],[-74.458,-9.041],[-74.475,-9.029],[-74.539,-8.849],[-74.508,-8.732],[-74.405,-8.62],[-74.331,-8.57],[-74.286,-8.583],[-74.266,-8.553],[-74.269,-8.479],[-74.298,-8.457],[-74.352,-8.486],[-74.4,-8.486],[-74.441,-8.455],[-74.473,-8.447],[-74.496,-8.446],[-74.506,-8.419],[-74.507,-8.321],[-74.532,-8.26],[-74.582,-8.237],[-74.599,-8.207],[-74.584,-8.17],[-74.594,-8.153],[-74.628,-8.157],[-74.639,-8.131],[-74.625,-8.076],[-74.634,-8.03],[-74.665,-7.992],[-74.706,-7.977],[-74.724,-7.975],[-74.743,-7.962],[-74.728,-7.943],[-74.737,-7.917],[-74.816,-7.883],[-74.86,-7.885],[-74.869,-7.924],[-74.899,-7.922],[-74.95,-7.879],[-74.965,-7.84],[-74.946,-7.806],[-74.962,-7.751],[-75.013,-7.676],[-75.013,-7.652],[-74.99,-7.647],[-74.979,-7.623],[-75.015,-7.558],[-75.016,-7.497],[-74.983,-7.438],[-75.019,-7.365],[-75.123,-7.279],[-75.196,-7.24],[-75.238,-7.25],[-75.255,-7.237],[-75.247,-7.203],[-75.269,-7.183],[-75.28,-7.159],[-75.265,-7.129],[-75.151,-7.05],[-75.136,-7.012],[-75.142,-6.988],[-75.166,-6.96],[-75.15,-6.902],[-75.091,-6.827],[-75.084,-6.748],[-75.13,-6.665],[-75.128,-6.61],[-75.106,-6.587],[-75.125,-6.536],[-75.163,-6.496],[-75.178,-6.454],[-75.152,-6.419],[-75.151,-6.345],[-75.187,-6.236],[-75.18,-6.157],[-75.129,-6.106],[-75.1,-6.106],[-75.081,-6.112],[-75.062,-6.101],[-75.052,-6.076],[-75.018,-6.063],[-74.962,-6.075],[-74.888,-6.051],[-74.8,-5.98],[-74.754,-5.985],[-74.722,-5.987],[-74.697,-5.975],[-74.694,-5.942],[-74.647,-5.863],[-74.555,-5.758],[-74.484,-5.727],[-74.434,-5.769],[-74.4,-5.774],[-74.381,-5.742],[-74.358,-5.738],[-74.335,-5.749],[-74.307,-5.739],[-74.285,-5.669],[-74.244,-5.626],[-74.192,-5.603],[-74.177,-5.579],[-74.186,-5.556],[-74.183,-5.533],[-74.165,-5.513],[-74.167,-5.484],[-74.175,-5.47],[-74.173,-5.455],[-74.159,-5.435],[-74.156,-5.413],[-74.162,-5.394],[-74.148,-5.373],[-74.107,-5.345],[-74.089,-5.305],[-74.099,-5.216],[-74.086,-5.125],[-74.049,-5.032],[-74.027,-5.021],[-74,-5.022],[-73.963,-5.063],[-73.9,-5.058],[-73.818,-4.994],[-73.774,-4.938],[-73.765,-4.895],[-73.74,-4.882],[-73.714,-4.887],[-73.704,-4.863],[-73.724,-4.827],[-73.702,-4.771],[-73.635,-4.711],[-73.594,-4.701],[-73.563,-4.696],[-73.556,-4.676],[-73.56,-4.644],[-73.547,-4.606],[-73.49,-4.553],[-73.489,-4.521],[-73.506,-4.51],[-73.512,-4.489],[-73.489,-4.445]]]}},{"type":"Feature","properties":{"nombre":"Uruguay"},"geometry":{"type":"MultiLineString","coordinates":[[[-49.737,-28.511],[-49.839,-28.465],[-49.938,-28.448],[-50.069,-28.444],[-50.141,-28.453],[-50.155,-28.474],[-50.233,-28.469],[-50.446,-28.422],[-50.578,-28.386],[-50.736,-28.236],[-50.966,-27.959],[-51.117,-27.808],[-51.19,-27.781],[-51.287,-27.716],[-51.406,-27.613],[-51.488,-27.564],[-51.53,-27.569],[-51.582,-27.548],[-51.645,-27.5],[-51.702,-27.488],[-51.754,-27.512],[-51.8,-27.512],[-51.873,-27.509],[-51.913,-27.473],[-51.984,-27.377],[-52.06,-27.314],[-52.139,-27.283],[-52.192,-27.281],[-52.229,-27.293],[-52.265,-27.277],[-52.304,-27.283],[-52.348,-27.276],[-52.415,-27.236],[-52.511,-27.231],[-52.636,-27.259],[-52.742,-27.246],[-52.826,-27.19],[-52.9,-27.177],[-52.953,-27.179],[-52.994,-27.163],[-53.031,-27.137],[-53.071,-27.142],[-53.104,-27.154],[-53.134,-27.14],[-53.184,-27.15],[-53.227,-27.174],[-53.263,-27.163],[-53.285,-27.129],[-53.305,-27.098],[-53.348,-27.081],[-53.398,-27.082],[-53.457,-27.103],[-53.49,-27.133],[-53.498,-27.172],[-53.54,-27.198],[-53.616,-27.21],[-53.66,-27.2],[-53.672,-27.169],[-53.718,-27.158],[-53.8,-27.165],[-53.852,-27.156],[-53.935,-27.161],[-54.04,-27.244],[-54.114,-27.275],[-54.156,-27.254],[-54.205,-27.29],[-54.26,-27.382],[-54.327,-27.423],[-54.448,-27.446],[-54.484,-27.457],[-54.555,-27.454],[-54.615,-27.477],[-54.666,-27.527],[-54.72,-27.545],[-54.777,-27.533],[-54.829,-27.551],[-54.876,-27.599],[-54.903,-27.652],[-54.91,-27.709],[-54.956,-27.747],[-55.04,-27.768],[-55.069,-27.796],[-55.064,-27.836],[-55.102,-27.867],[-55.244,-27.899],[-55.347,-27.956],[-55.41,-28.038],[-55.477,-28.089],[-55.582,-28.121],[-55.726,-28.204],[-55.746,-28.255],[-55.692,-28.303],[-55.672,-28.345],[-55.687,-28.382],[-55.732,-28.387],[-55.806,-28.36],[-55.859,-28.354],[-55.891,-28.37],[-55.905,-28.4],[-55.904,-28.443],[-55.93,-28.473],[-55.985,-28.489],[-56.02,-28.525],[-56.034,-28.581],[-56.103,-28.652],[-56.226,-28.737],[-56.322,-28.852],[-56.393,-28.997],[-56.476,-29.092],[-56.571,-29.138],[-56.636,-29.203],[-56.672,-29.287],[-56.772,-29.418],[-56.939,-29.595],[-57.089,-29.716],[-57.225,-29.782],[-57.301,-29.857],[-57.318,-29.939],[-57.405,-30.034],[-57.564,-30.14],[-57.646,-30.227],[-57.651,-30.295],[-57.713,-30.384],[-57.831,-30.495],[-57.873,-30.591],[-57.819,-30.712],[-57.811,-30.859],[-57.834,-30.917],[-57.886,-30.937],[-57.898,-30.975],[-57.87,-31.031],[-57.868,-31.104],[-57.893,-31.195],[-57.948,-31.299],[-58.033,-31.417],[-58.054,-31.495],[-58.01,-31.534],[-57.988,-31.576],[-57.989,-31.621],[-58.007,-31.685],[-58.042,-31.769],[-58.096,-31.832],[-58.168,-31.873],[-58.189,-31.924],[-58.16,-31.987],[-58.156,-32.052],[-58.177,-32.119],[-58.165,-32.185],[-58.12,-32.249],[-58.123,-32.322],[-58.201,-32.472]]]}},{"type":"Feature","properties":{"nombre":"Usumacinta"},"geometry":{"type":"MultiLineString","coordinates":[[[-90.417,16.391],[-90.471,16.44],[-90.576,16.468],[-90.634,16.511],[-90.634,16.565],[-90.66,16.631],[-90.711,16.708],[-90.816,16.787],[-90.976,16.868],[-91.112,16.976],[-91.224,17.112],[-91.319,17.2],[-91.392,17.236],[-91.417,17.264],[-91.417,17.287],[-91.4,17.314],[-91.414,17.35],[-91.466,17.384],[-91.496,17.42],[-91.504,17.458],[-91.488,17.481],[-91.449,17.488],[-91.45,17.515],[-91.49,17.563],[-91.473,17.589],[-91.398,17.594],[-91.366,17.627],[-91.378,17.686],[-91.4,17.711],[-91.433,17.701],[-91.446,17.715],[-91.44,17.751],[-91.456,17.779],[-91.494,17.798],[-91.524,17.794],[-91.546,17.766],[-91.567,17.773],[-91.587,17.813],[-91.613,17.818],[-91.645,17.787],[-91.652,17.764],[-91.64,17.75],[-91.641,17.736],[-91.69,17.732],[-91.732,17.762],[-91.79,17.844],[-91.85,17.878],[-91.912,17.862],[-91.993,17.887],[-92.093,17.954],[-92.137,18.013],[-92.127,18.062],[-92.144,18.122],[-92.189,18.191],[-92.212,18.204]],[[-92.212,18.204],[-92.296,18.255],[-92.464,18.316],[-92.572,18.335],[-92.621,18.312],[-92.652,18.333],[-92.67,18.431],[-92.675,18.481],[-92.679,18.543],[-92.688,18.578],[-92.71,18.612]],[[-92.212,18.204],[-92.263,18.361],[-92.31,18.426],[-92.371,18.467],[-92.422,18.531],[-92.485,18.665]]]}},{"type":"Feature","properties":{"nombre":"Verde"},"geometry":{"type":"MultiLineString","coordinates":[[[-100.344,22.117],[-100.171,22.027],[-99.993,21.945],[-99.902,21.864],[-99.84,21.756],[-99.782,21.703],[-99.73,21.705],[-99.69,21.692],[-99.665,21.664],[-99.621,21.673],[-99.559,21.719],[-99.46,21.719],[-99.324,21.672],[-99.191,21.699],[-99.06,21.799],[-98.952,21.851],[-98.868,21.855],[-98.807,21.89],[-98.769,21.957],[-98.728,21.988],[-98.662,21.983],[-98.59,21.981]]]}},{"type":"Feature","properties":{"nombre":"Xingu"},"geometry":{"type":"MultiLineString","coordinates":[[[-53.444,-11.444],[-53.305,-11.298],[-53.273,-11.175],[-53.302,-11.025],[-53.266,-10.917],[-53.166,-10.852],[-53.101,-10.706],[-53.072,-10.48],[-53.032,-10.343],[-52.982,-10.296],[-52.972,-10.25],[-53.001,-10.206],[-53.011,-10.155],[-53.002,-10.095],[-52.945,-10.005],[-52.839,-9.884],[-52.755,-9.808],[-52.69,-9.775],[-52.636,-9.715],[-52.59,-9.628],[-52.48,-9.596],[-52.304,-9.62],[-52.205,-9.585],[-52.182,-9.491],[-52.133,-9.4],[-52.058,-9.311],[-52.036,-9.237],[-52.067,-9.176],[-52.083,-9.085],[-52.085,-8.965],[-52.132,-8.878],[-52.222,-8.824],[-52.292,-8.746],[-52.342,-8.643],[-52.413,-8.581],[-52.505,-8.558],[-52.572,-8.522],[-52.612,-8.473],[-52.637,-8.4],[-52.645,-8.303],[-52.688,-8.167],[-52.765,-7.993],[-52.742,-7.726],[-52.618,-7.365],[-52.513,-7.131],[-52.427,-7.022],[-52.31,-6.954],[-52.164,-6.925],[-52.064,-6.863],[-52.011,-6.767],[-52.011,-6.677],[-52.063,-6.594],[-52.132,-6.548],[-52.216,-6.539],[-52.301,-6.483],[-52.387,-6.381],[-52.435,-6.29],[-52.45,-6.172],[-52.512,-6.089],[-52.534,-6.009],[-52.536,-5.902],[-52.58,-5.754],[-52.667,-5.565],[-52.75,-5.445],[-52.829,-5.395],[-52.882,-5.298],[-52.908,-5.156],[-52.856,-4.933],[-52.775,-4.745],[-52.725,-4.629],[-52.679,-4.441],[-52.719,-4.37],[-52.714,-4.301],[-52.665,-4.233],[-52.634,-4.114],[-52.613,-3.861]],[[-52.609,-3.855],[-52.345,-3.595],[-52.233,-3.438],[-52.184,-3.299],[-52.109,-3.275],[-52.009,-3.367],[-51.952,-3.441],[-51.939,-3.499],[-51.905,-3.543],[-51.849,-3.574],[-51.787,-3.56],[-51.719,-3.502],[-51.693,-3.445],[-51.709,-3.388],[-51.691,-3.313],[-51.641,-3.218],[-51.657,-3.15],[-51.738,-3.108],[-51.836,-3.021],[-51.952,-2.887],[-52.003,-2.765],[-51.989,-2.655],[-52.039,-2.489],[-52.092,-2.386],[-52.153,-2.267],[-52.221,-2.041],[-52.251,-1.746],[-52.231,-1.683],[-52.197,-1.64]]]}}]}